NAPS_ID	STATION_NAME	Type	Status	TOXIC	Designated	PROVINCE	STREET_ADDRESS	CITY	COUNTRY	FSA	Postal_Code	TimeZone	Lat_Decimal	Long_Decimal	Elevation_m	SO2	CO	NO2	NO	NOX	O3	PM_10_continuous	PM_25_015_continuous	PM_25_017_dryer	PM_25_018_BAM_RH45	PM_25_019_gravimetric40/50	PM_25_020_gravimetric30/50	PM_25_021_gravimetric30	PM_25_022__FDMS	PM_1_GRIMM180	PM_25_026_GRIMM180	PM_10_GRIMM180	PM_25_030_BAM_RH3	PM_10_031_BAM_RH35	PM_25_032_SHARP	VOC	ALDEH_KETO	DICHOTX_METALS	PCB	PCDD	PBDE
10101	DUCKWORTH & ORDINANCE	C	0		P	NEWFOUNDLAND AND LABRADOR	DUCKWORTH & ORDINANCE	ST. JOHN'S	CANADA	A1C	A1C 1E4	-3.5	47.56806	-52.70222	7	X	X	X	X	X	X																				
10102	WATER STREET POST OFFICE	C	1	X	Y	NEWFOUNDLAND AND LABRADOR	354 WATER STREET	ST. JOHN'S	CANADA	A1C	A1C 1C4	-3.5	47.56	-52.71139	17	X	X	X	X	X	X												X			X	X				
10201	CORMACK	U	0		P	NEWFOUNDLAND AND LABRADOR	CORMACK	CORMACK	CANADA	A0K	A0K 2E0	-3.5	49.26222	-57.45583	120																										
10301	CREDIT UNION	C	0		P	NEWFOUNDLAND AND LABRADOR	BROOK STREET	CORNER BROOK	CANADA	A2H	A2H 2T7	-3.5	48.949479	-57.945387	5	X	X	X	X	X	X												X								
10400	CENTRAL NEWFOUNDLAND	C	0		P	NEWFOUNDLAND AND LABRADOR	AFB GANDER	GANDER	CANADA	A2B	A2B 1C6	-3.5	48.94287	-54.55753	125																										
10401	MOUNT PEARL	R	1		Y	NEWFOUNDLAND AND LABRADOR	OLD PLACENTIA ROAD	MOUNT PEARL	CANADA	A1N	A1N 4P4	-3.5	47.50513	-52.79476	134	X	X	X	X	X	X												X								
10501	ABITIBI SITE	C	1		Y	NEWFOUNDLAND AND LABRADOR	SCOTT AVENUE	GRAND FALLS - WINDSOR	CANADA	A2B	A2A 2K1	-3.5	48.92696	-55.65966	64	X	X	X	X	X	X												X								
10601	GOOSE BAY	R	1		C	NEWFOUNDLAND AND LABRADOR	ABBOT STREET	HAPPY VALLEY - GOOSE BAY	CANADA	A0P	A0P 1CO	-4	53.31111	-60.36667	39						X																				
10602	MACPHERSON AVENUE	C	1		Y	NEWFOUNDLAND AND LABRADOR	Macpherson Ave	Corner Brook	CANADA	A2H	A2H 6Z4	-3.5	48.95224	-57.92207	99	X	X	X	X	X	X												X								
10701	FERROLE POINT	C	0		P	NEWFOUNDLAND AND LABRADOR	FERROLE POINT LIGHthOUSE	FERROLE POINT	CANADA	A0K	A0K 4L0	-3.5	51.021995	-57.095567	13						X																				
10801	PORT AU CHOIX	R	1		Y	NEWFOUNDLAND AND LABRADOR	PORT AU CHOIX	PORT AUX CHOIX	CANADA	A0K	A0K 4C0	-3.5	50.71124	-57.36365	17						X																				
10901	MARYSTOWN_BURIN	U	1		P	NEWFOUNLAND AND LABRADOR		MARYSTOWN	CANADA	A0E	A0E 2M0	-3.5	47.09899	-55.19852	1	X		X	X	X	X												X	X							
20101	56 FITZROY ST.	C	0		P	PRINCE EDWARD ISLAND	56 FITZROY ST.	CHARLOTTETOWN	CANADA	C1A	C1A 1R5	-4	46.23543	-63.13078	2																										
20102	16 FITZROY ST.	C	0		P	PRINCE EDWARD ISLAND	16 FITZROY ST.	CHARLOTTETOWN	CANADA	C1A	C1A 1R1	-4	46.23405	-63.1332	2																										
20103	CHARLOTTETOWN 1	C	0		P	PRINCE EDWARD ISLAND	11 KENT STREET	CHARLOTTETOWN	CANADA	C1A	C1A 7N8	-4	46.23277	-63.13337	30																										
20104	CHARLOTTETOWN 2	C	1		Y	PRINCE EDWARD ISLAND	3 BRIGHTON ROAD	CHARLOTTETOWN	CANADA	C1A	C1A 8T6	-4	46.233	-63.13667	21	X		X	X	X	X		X																		
20201	ATLANTIC WIND TEST SITE	U	0		P	PRINCE EDWARD ISLAND	NORth CAPE	NORth CAPE	CANADA	C0B		-4	47.055	-63.99722	4																										
20301	WELLINGTON	A	1		Y	PRINCE EDWARD ISLAND	125 ROUTE 125 (Hackmatack Road)	WELLINGTON	CANADA	C0B	C0B 2E0	-4	46.45	-64	6			X			X		X																		
20401	SOUTHAMPTON	A	1		Y	PRINCE EDWARD ISLAND	2580 Route 313 (Cardigan Road)	SOUthAMPTON	CANADA	C0A	C0A 2A0	-4	46.38752	-62.58122	30						X		X																		
30101	DALTECH	C	0		P	NOVA SCOTIA	"Daltech, C Building, 1360 Barrington Street"	HALIFAX	CANADA	B3H	B3J 1B6	-4	44.64202	-63.57362	35																										
30102	DALHOUSIE UNIVERSITY	R	0		P	NOVA SCOTIA	DALHOUSIE UNIVERSITY	HALIFAX	CANADA	B3H	B3H 3Z1	-4	44.63611	-63.59583	37																										
30113	JOHNSTON BUILDING	C	1	X	Y	NOVA SCOTIA	1672 GRANVILLE STREET	HALIFAX	CANADA	B3J	B3J 2N2	-4	44.647	-63.574	28																		X					X			
30114	MT ST VINCENT UNIVERSITY	R	0		P	NOVA SCOTIA	MT ST VINCENT UNIVERSITY	HALIFAX	CANADA	B3M	B3M 3J8	-4	44.67111	-63.64389	12																										
30115	CFB SHEARWATER	I	0		P	NOVA SCOTIA	CFB SHEARWATER	HALIFAX	CANADA	B0J	B0J 3A0	-4	44.62611	-63.51944	15																										
30116	HALIFAX CITY HALL	C	0		P	NOVA SCOTIA	BARRINGTON & DUKE	HALIFAX	CANADA	B3J	B3J 3N8	-4	44.64861	-63.57583	21																										
30117	BEDFORD ROW POST OFFICE	C	0		P	NOVA SCOTIA	BEDFORD ROW POST OFFICE	HALIFAX	CANADA	B3J	B3J 1M7	-4	44.64833	-63.57333	9																					X					
30118	ROY BUILDING	C	1	X	Y	NOVA SCOTIA	1657 BARRINGTON STREET	HALIFAX	CANADA	B3J	B3J 2A1	-4	44.646323	-63.573381	18	X	X	X	X	X	X												X		X	X	X				
30119	HARBOURVIEW SCHOOL	R	0		P	NOVA SCOTIA	HARBOURVIEW SCHOOL	HALIFAX	CANADA	B3A	B3A 4H4	-4	44.68061	-63.59011	44																										
30120	LAKE MAJOR	R	1		Y	NOVA SCOTIA	Cherrybrook Road	DARTMOUth	CANADA	B2Z	B2Z 1B3	-4	44.719799	-63.480754	68	X		X	X	X	X												X								
30201	PORT HAWKESBURY	R	1		Y	NOVA SCOTIA	"Old Post Office, Embree and Granville Streets"	PORT HAWKESBURY	CANADA	B0E	B9A 2P6	-4	45.613886	-61.361972	14	X		X	X	X	X												X								
30202	PORT HAWKESBURY PLAYGROUND	R	0		P	NOVA SCOTIA	QUEEN STREET EXTENSION	PORT HAWKESBURY	CANADA		B9A 3N5	-4	45.60907	-61.34227	24																		X								
30301	MURPHY ROAD	R	0		P	NOVA SCOTIA	MURPHY ROAD	SYDNEY	CANADA	B1R	B1R 1W4	-4	46.13028	-60.21139	9																										
30302	SYDNEY STEEL CORPORATION	I	0		P	NOVA SCOTIA	SYDNEY STEEL CORPORATION	SYDNEY	CANADA	B1P	B1N 2E3	-4	46.15391	-60.1845	29	X	X	X	X	X	X												X								
30303	COAL LOADING PIER	I	0		P	NOVA SCOTIA		SYDNEY	CANADA			-4																													
30309	PORT EDWARD  RICHMOND PLST	I	0		P	NOVA SCOTIA	PORT EDWARD  RICHMOND PLST	SYDNEY	CANADA	B1P		-4	46.15472	-60.21833	0																										
30310	WELTON STREET SYDNEY	C	1		Y	NOVA SCOTIA	71 WELTON STREET	SYDNEY	CANADA	B1P	B1P 5R2	-4	46.14222	-60.17252	27	X		X	X		X												X		X						
30311	WHITNEY PIER FIRE STATION	R	0		P	NOVA SCOTIA	"WHITNEY PIER FIRE STN., Victoria Road, Whitney Pier"	SYDNEY	CANADA	B1N	B1N 1L1	-4	46.16111	-60.18722	29	X		X			X												X		X						
30401	LAKE ROAD	R	0		P	NOVA SCOTIA	LAKE ROAD	GLACE BAY	CANADA	B1A	B1A 2H1	-4	46.177	-59.95715	20																										
30405	GENERAL HOSPITAL	C	0		P	NOVA SCOTIA	GENERAL HOSPITAL	GLACE BAY	CANADA	B1A	B1A 1K8	-4	46.18806	-59.95667	17																										
30406	PUMPING STATION ROAD	R	0		P	NOVA SCOTIA	PUMPING STATION ROAD	GLACE BAY	CANADA	B1B	B1B 1X3	-4	46.15435	-59.95857	5																										
30408	SOUTH STREET	R	0		P	NOVA SCOTIA	SOUth STREET	GLACE BAY	CANADA	B1A	B1A 1W6	-4	46.18361	-59.93917	11																										
30409	SOUTH STREET	R	0		P	NOVA SCOTIA	SOUth STREET	GLACE BAY	CANADA	B1A	B1A 1W5	-4	46.18333	-59.9375	6																										
30501	KEJIMKUJIK NATIONAL PARK	U	1	X	C	NOVA SCOTIA	NATIONAL PARK	KEJIMKUJIK	CANADA	B0T		-4	44.433611	-65.205833	127						X															X	X				
30601	123 OAKES ROAD	U	0		P	NOVA SCOTIA	123 OAKES ROAD	FALL RIVER	CANADA	B2T	B2T 1J5	-4	44.8125	-63.60417	72																										
30701	AYLESFORD MOUNTAIN	U	1		Y	NOVA SCOTIA	"MOUNTAIN BROW ROAD, KINGS COUNTY"	AYLESFORD	CANADA	B0S	B0P 1C0	-4	45.07267	-64.84033	235			X	X	X	X												X								
30801	DAYTON	U	1		P	NOVA SCOTIA	"YARMOUth WEAthER OFFICE, DAYTON"	YARMOUth	CANADA	B0W		-4	43.83333	-66.08333	31						X																				
30901	PICTOU	R	1		Y	NOVA SCOTIA	91 BEACHES ROAD	PICTOU	CANADA	B0K	B0K 1H0	-4	45.68167	-62.69664	12						X												X								
31001	SABLE ISLAND	R	1	X	Y	NOVA SCOTIA	SABLE ISLAND	SABLE ISLAND	CANADA	B0H		-4	43.93307	-59.90365	8	X		X	X	X	X												X		X			X			
31101	KENTVILLE - AGRI-FOOD CANADA	A	1		P	NOVA SCOTIA	32 MAIN STREET	KENTVILLE	CANADA	B4N	B4N 1J5	-4	45.06667	-64.48333	60						X																				
31201	GRANTON	C	1	X	Y	NOVA SCOTIA	20 Pumphouse Road	Granton	CANADA		B0K 1H0	-4	45.63115	-62.73838	2																					X	X				
40101	WOODSTOCK ROAD	C	0		P	NEW BRUNSWICK	WOODSTOCK ROAD	FREDERICTON	CANADA	E3B	E3B 2L7	-4	45.96556	-66.65361	10																										
40102	YORK STREET	C	0		P	NEW BRUNSWICK	YORK STREET	FREDERICTON	CANADA	E3B	E3B 3R3	-4	45.95278	-66.65083	29																										
40103	ABERDEEN STREET	C	1	X	Y	NEW BRUNSWICK	437 ABERDEEN STREET	FREDERICTON	CANADA	E3B	E3B 1S2	-4	45.9575	-66.64666	21		X	X	X	X	X												X								
40201	110 CHARLOTTE STREET	C	0		P	NEW BRUNSWICK	110 CHARLOTTE STREET	SAINT JOHN	CANADA	E2L	E2L 2J3	-4	45.272517	-66.058401	51																		X								
40202	POST OFFICE	C	0		P	NEW BRUNSWICK	POST OFFICE	SAINT JOHN	CANADA	E2L	E2L 0B1	-4	45.27056	-66.0625	2																										
40203	FOREST HILLS	R	1	X	Y	NEW BRUNSWICK	MOUNTAIN ROAD	SAINT JOHN	CANADA	E2J	E2J 2X1	-4	45.308779	-66.008112	41	X		X	X	X	X												X			X	X	X			
40204	WEST DISTRICT POLICE STATION	R	0		P	NEW BRUNSWICK	1918 MANAWAGONISH ROAD	SAINT JOHN	CANADA	E2M	E2M 5H5	-4	45.235	-66.13917	49																										
40205	REGIONAL CENTER	C	0		P	NEW BRUNSWICK	439 PRINCE STREET	SAINT JOHN	CANADA	E2M	E2M 1R3	-4	45.25417	-66.08333	46																										
40206	CUSTOMS BUILDING	C	1		Y	NEW BRUNSWICK	189 PRINCE WILLIAM	SAINT JOHN	CANADA	E2L	E2L 2B9	-4	45.26972	-66.06138	29	X	X	X	X	X	X																				
40207	WEST SIDE	R	1		Y	NEW BRUNSWICK	476 LANCASTER AVENUE W.	SAINT JOHN	CANADA	E2M	E2M 2L7	-4	45.25277	-66.08003	59	X		X	X	X	X												X								
40208	CHAMPLAIN HEIGHTS SCHOOL	R	1	X	Y	NEW BRUNSWICK	111 CHAMPLAIN DRIVE	SAINT JOHN	CANADA	E2J	E2J 3E4	-4	45.291223	-66.002827	47	X		X	X	X																X	X				
40209	SAINT JOHN REGIONAL OFFICE	C	1		Y	NEW BRUNSWICK	8 Castle Street	SAINT JOHN	CANADA	E2J	E2J 3B8	-4	45.28028	-66.05611	41																		X								
40301	774 MAIN STREET	C	0		P	NEW BRUNSWICK	774 MAIN STREET	MONCTON	CANADA	E1C	E1C 9Y3	-4	46.08833	-64.77778	29																										
40302	CITY WATER PUMP STATION	R	1		Y	NEW BRUNSWICK	5 thANET STREET	MONCTON	CANADA	E1A	E1C 3G7	-4	46.10162	-64.78962	9		X	X	X	X	X												X								
40401	HASTINGS TOWER	U	1		Y	NEW BRUNSWICK	HASTINGS TOWER	FUNDY NAT. PARK	CANADA	E0A		-4	45.59222	-64.99444	335						X																				
40501	PT LEPREAU - CHARLOTTE COUNTY	U	1	X	Y	NEW BRUNSWICK	RECREATION AREA	POINT LEPREAU	CANADA	E0G		-4	45.073272	-66.449573	0						X															X	X				
40601	BLISSVILLE - SUNBURY COUNTY	U	1		Y	NEW BRUNSWICK	AIRPORT ROAD	CENTRAL BLISSVILLE	CANADA	E0G		-4	45.60492	-66.56031	9						X																				
40701	NORTON - KINGS COUNTY	R	1		Y	NEW BRUNSWICK	308 HWY 124	NORTON	CANADA	E0G		-4	45.64194	-65.70277	20						X																				
40801	CANTERBURY	U	1	X	Y	NEW BRUNSWICK	487 ROUTE 122	DOW SETTLEMENT	CANADA	E0H	E6H 1B9	-4	45.95333	-67.47778	153						X												X					X			
40901	HUNTSMAN MARINE SCIENCES CTR.	U	1		Y	NEW BRUNSWICK	BRANDY COVE ROAD	ST. ANDREWS	CANADA	E0G	E0G 2X0	-4	45.081077	-67.074665	25						X												X								
41001	CAMPOBELLO ISLAND	U	0		P	NEW BRUNSWICK	CAMPOBELLO ISLAND	CAMPOBELLO ISLAND	CANADA	E0G		-4	44.87306	-66.95611	29																										
41101	ST. LEONARD	C	1		Y	NEW BRUNSWICK	312 CH L'AEROPORT	ST. LEONARD	CANADA	E7E	E7E 2P7	-4	47.15777	-67.83	239						X																				
41201	LOWER NEWCASTLE	R	1		Y	NEW BRUNSWICK	55 ROUTE 11 HWY	LOWER NEWCASTLE	CANADA	E0C	E1V 7E7	-4	47.07083	-65.42444	18						X																				
41301	HOLY FAMILY CHURCH	R	0		P	NEW BRUNSWICK	430 ST. PETERS AVENUE	BAthURST	CANADA	E2A	E2A 2Y2	-4	47.62889	-65.66333	20																										
41302	BATHURST	R	1		Y	NEW BRUNSWICK	1255 Rough Waters Drive	BAthURST	CANADA	E2A	E2A 1Z2	-4	47.609528	-65.633528	16				X	X	X												X								
50101	PARC JARRY	R	0		P	QUEBEC	PARC JARRY	MONTREAL	CANADA	H2P		-5	45.53583	-73.63333	47																										
50102	JARDIN BOTANIQUE	R	0		P	QUEBEC	BOUL. ROSEMONT	MONTREAL	CANADA	H1X	H1X 2C1	-5	45.562117	-73.571627	59	X		X	X		X																				
50103	SAINT-JEAN-BAPTISTE	R	1	X	Y	QUEBEC	"1050 A, BOUL. SAINT-JEAN-BAPTISTE"	MONTREAL	CANADA	H1B	H1B 4A1	-5	45.64128	-73.49939	19	X	X	X	X		X								X							X	X				
50104	ONTARIO	C	0		P	QUEBEC	1125 RUE ONTARIO EST	MONTREAL	CANADA	H2L	H2L 1R2	-5	45.520532	-73.563178	46			X	X		X															X	X	X			
50105	DRUMMOND	C	0		Y	QUEBEC	1212 RUE DRUMMOND	MONTREAL	CANADA	H3B	H3G 1V7	-5	45.497783	-73.573092	52														X												
50106	VILLE ST-LAURENT	R	0		P	QUEBEC	VILLE ST-LAURENT	MONTREAL	CANADA	H4N		-5	45.525	-73.67194	40																										
50107	VILLE LASALLE	R	0		P	QUEBEC	VILLE LASALLE	MONTREAL	CANADA	H4E		-5	45.46	-73.60556	13																										
50108	1700 BOURASSA	R	0		P	QUEBEC	1700 BOURASSA  LONGUEUIL	MONTREAL	CANADA	J4J	J4J 3A6	-5	45.52222	-73.48389	29																										
50109	DUNCAN & DÉCARIE	C	1		Y	QUEBEC	"2495 DUNCAN / DECARIE, MT-ROYAL"	MONTREAL	CANADA	H4P	H4P 2A2	-5	45.502679	-73.663875	41		X	X	X		X								X												
50110	PARC-PILON	C	0		Y	QUEBEC	"11280 BOUL. PIE IX, MTL NORD"	MONTREAL	CANADA	H1H	H1H 4B5	-5	45.5945	-73.6415	21		X	X	X		X								X												
50111	DUVERNAY	C	0		P	QUEBEC	2900 BOUL. CONCORDE	LAVAL	CANADA	H7E	H7E 2B6	-5	45.589722	-73.820833	24																										
50112	PONT VIAU	C	0		P	QUEBEC	PONT-VIAU	LAVAL	CANADA	H7N		-5	45.56	-73.681389	25																										
50113	CHOMEDEY	R	1		Y	QUEBEC	1160 BOUL PIE X	LAVAL	CANADA	H7V	H7V 3B5	-5	45.5475	-73.74694	35		X	X	X		X												X								
50114	677 STE-CATHERINE O.	C	0		P	QUEBEC	677 STE-CATHERINE O.	MONTREAL	CANADA	H3B	H3B 3Y6	-5	45.50278	-73.57083	97																										
50115	DE MAISONNEUVE	C	1	X	Y	QUEBEC	1001 BOUL DE MAISONNEUVE OUEST	MONTREAL	CANADA	H3A	H3A 3C8	-5	45.50083	-73.57528	56	X	X	X	X		X															X	X				
50116	VERDUN	R	1		Y	QUEBEC	"3161 JOSEPH, VERDUN"	MONTREAL	CANADA	H4G	H4G 1H8	-5	45.47167	-73.57222	21			X	X		X																				
50117	7405 CHAMPAGNEUR	R	0		P	QUEBEC	7405 CHAMPAGNEUR	MONTREAL	CANADA	H2R	H3N 2K1	-5	45.53333	-73.63333	48																										
50118	820 ST. GERMAIN	R	0		P	QUEBEC	820 ST. GERMAIN	MONTREAL	CANADA	H4N		-5	45.52528	-73.6725	36																										
50119	BOURASSA	R	1		Y	QUEBEC	FACE AU 1819 RUE VICTORIA	LONGUEUIL	CANADA	J4J	J4J 3C8	-5	45.52207	-73.4881	32			X	X		X												X								
50120	ROXBORO	R	0		P	QUEBEC	"54, 4e  AVE SUD, ROXBORO"	MONTREAL	CANADA	H9B		-5	45.49444	-73.80778	33																										
50121	PARC OCÉANIE	R	1	X	Y	QUEBEC	8361 RUE OCEANIE - BROSSARD	LONGUEUIL	CANADA	J4Y		-5	45.44306	-73.46861	15	X		X	X		X												X			X	X				
50123	"55 AVENUE LILAS, DORVAL"	R	0		P	QUEBEC	55 AVENUE LILAS	MONTREAL	CANADA	H9S	H9S 3L8	-5	45.43917	-73.73111	30																										
50124	ANJOU	R	1	X	Y	QUEBEC	"7650 RUE CHÂTEAUNEUF, ANJOU"	MONTREAL	CANADA	H1K	H1K 5G1	-5	45.60278	-73.55833	51																							X			
50125	CENTRE RÉCRÉATIF EDOUARD RIVEST	R	0		P	QUEBEC	11111 NOTRE-DAME EST	MONTREAL	CANADA	H1B	H1B 2V7	-5	45.62667	-73.5	10																							X			
50126	SAINTE-ANNE DE BELLEVUE	R	1	X	Y	QUEBEC	"20965 CH. SAINTE-MARIE, STE-ANNEdB"	MONTREAL	CANADA	H9X	H9J 3H2	-5	45.42667	-73.92917	39			X	X		X								X							X					
50127	SAINT MICHEL	R	0		P	QUEBEC	8110 BOUL. SAINT-MICHEL	MONTREAL	CANADA	H1Z	H1Z 3E2	-5	45.56333	-73.61056	60																										
50128	AÉROPORT DE MONTRÉAL 1	C	1	X	Y	QUEBEC	"90-A RUE HERVE-SAINT-MARTIN, DORVAL"	MONTREAL	CANADA	H4Y	H4Y 1H1	-5	45.46806	-73.74111	33		X	X	X		X								X							X					
50129	RIVIÉRE-DES-PRAIRIES	A	1	X	Y	QUEBEC	12400 WILFRID-OUELLETTE	MONTREAL	CANADA	H1E	H1E 6K4	-5	45.651691	-73.573825	29		X				X							X	X							X	X	X			
50130	AÉROPORT DE MONTRÉAL 2	C	0		P	QUEBEC	"711-A RUE CLEMENT, DORVAL"	MONTREAL	CANADA	H9P		-5	45.4575	-73.76778	28																										
50131	HOCHELAGA-MAISONNEUVE	C	1		Y	QUEBEC	3250 STE-CAthERINE EST	MONTREAL	CANADA	H1W	H1W 2C6	-5	45.539884	-73.540411	25														X												
50132	AÉROPORT DE MONTRÉAL 3	C	0		P	QUEBEC	"21-A PONNER, DORVAL"	MONTREAL	CANADA			-5	45.46063	-73.7863	29																										
50133	CHENIER	C	1	X	Y	QUEBEC	"8200A RUE CHENIER, ANJOU"	MONTREAL	CANADA			-5	45.60185	-73.54197	41	X		X	X										X							X	X				
50134	MOLSON	R	1	X	Y	QUEBEC	2580 Saint-Joseph est	MONTREAL	CANADA	H1Y	H1Y 2A2	-5	45.54271	-73.57176	53	X		X	X		X								X							X	X	X			
50201	RUE PRINCIPALE	C	0		P	QUEBEC	"RUE PRINCIPALE, HULL"	GATINEAU	CANADA	J8X		-5	45.4248	-75.72075	55		X	X	X		X								X						X						
50203	GAMELIN	R	0		P	QUEBEC	"RUE GAMELIN, HULL"	GATINEAU	CANADA	J8Y		-5	45.444167	-75.738889	86																										
50204	HULL _ÎLE_	R	1		Y	QUEBEC	"255 ST-REDEMPTEUR, HULL"	GATINEAU	CANADA	J8Y	J8X 2T4	-5	45.435718	-75.72328	62	X	X	X	X		X												X								
50301	SAINT-ROCH	C	0		P	QUEBEC	DE LA CHAPELLE & STE-MARGUERITE	QUEBEC	CANADA	G1K		-5	46.814722	-71.219722	8																										
50302	BARDY	R	0		P	QUEBEC	RUE BARDY	QUEBEC	CANADA	G1J		-5	46.843333	-71.226667	12																										
50303	LIMOILOU	I	0		P	QUEBEC	"801, 4E AVENUE"	QUEBEC	CANADA	G1J		-5	46.824722	-71.216389	2																										
50304	DORCHESTER	C	0		P	QUEBEC	"155, RUE DORCHESTER SUD"	QUEBEC	CANADA	G1K		-5	46.819722	-71.2275	2																										
50305	MYRAND	R	0		P	QUEBEC	"MYRAND & RENE-LEVESQUE, STE-FOY"	QUEBEC	CANADA	G1T		-5	46.783611	-71.263333	80																										
50306	GOMIN	R	0		P	QUEBEC	"FACE AU 891, PAINCHAUD, STE-FOY"	QUEBEC	CANADA	G1S		-5	46.78806	-71.26056	75																										
50307	CARTIER BRÉBOEUF	R	0		P	QUEBEC	RUE JACQUES CARTIER	QUEBEC	CANADA	G1L		-5	46.824444	-71.234722	6																										
50308	DES SABLES	R	1	X	Y	QUEBEC	600 RUE DES SABLES	QUEBEC	CANADA	G1J	G1J 2X9	-5	46.821177	-71.220495	8	X	X	X	X		X												X					X			
50309	SAINT-ANGE	R	0		P	QUEBEC	"1352 RANG ST-ANGE, STE-FOY"	QUEBEC	CANADA	G2G		-5	46.76917	-71.4025	43																										
50310	ST-CHARLES GARNIER	R	1		Y	QUEBEC	1150 BOUL. RENE-LEVESQUE O.	QUEBEC	CANADA	G1S	G1S 1V7	-5	46.79694	-71.24611	69			X	X		X												X								
50311	PARC PRIMEVÈRE	R	1		Y	QUEBEC	"1465, RUE FELIX-ANTOINE-SAVARD"	QUEBEC	CANADA	G2G	G2G 1Z2	-5	46.774167	-71.369722	26			X	X		X												X								
50312	CHARNY	C	0		P	QUEBEC	"2254 ROTONDE, CHARNY"	LEVIS	CANADA	G6X	G6X 2L8	-5	46.4232	-71.1601	239						X																				
50401	MARCHÉ PUBLIC	C	0		P	QUEBEC	MARCHE PUBLIC	SHERBROOKE	CANADA	J1H		-5	45.40454	-71.8999	182																										
50402	MC MANAMY	R	0		P	QUEBEC	700 MC MANAMY	SHERBROOKE	CANADA	J1H		-5	45.38917	-71.89722	226																										
50403	PARC WEBSTER	C	0		P	QUEBEC	713 RUE ALBERT	SHERBROOKE	CANADA	J1H		-5	45.40222	-71.89056	165																										
50404	PARC CAMBRON	R	1		Y	QUEBEC	"655, RUE PAPINEAU"	SHERBROOKE	CANADA	J1E	J1E 1Y6	-5	45.4125	-71.87444	211						X												X								
50501	HOTEL DE VILLE	C	0		P	QUEBEC	"PLACE DAVIS, JONQUIERE"	SAGUENAY	CANADA	G7H		-5	48.42804	-71.06834	4																										
50502	PONT ARNAUD	R	0		P	QUEBEC	"CH. DE LA RESERVE, CHICOUTIMI"	SAGUENAY	CANADA	G7J		-5	48.40583	-71.12278	123																										
50503	RACINE	C	0		P	QUEBEC	"222 RACINE, CHICOUTIMI"	SAGUENAY	CANADA	G7H	G7H 1S2	-5	48.42722	-71.06222	9																										
50504	UNIVERSITÉ CHICOUTIMI	R	1		Y	QUEBEC	"789 BOUL DES ETUDIANTS, CHICOUTIMI"	SAGUENAY	CANADA	G7H	G7H 6M3	-5	48.41639	-71.0525	82						X												X								
50601	HOTEL DE VILLE	C	0		P	QUEBEC	"100, RUE TASCHEREAU, E."	ROUYN-NORANDA	CANADA	J9X		-5	48.2375	-79.01694	292																										
50602	ÉCOLE LOOSEMORE	C	0		P	QUEBEC	218 RUE PORTAGE	ROUYN-NORANDA	CANADA	J9X		-5	48.23333	-79.01139	299																										
50603	ÉCOLE MURDOCK	R	0		P	QUEBEC	50 RUE MURDOCK	ROUYN-NORANDA	CANADA	J9X	J9X 1C6	-5	48.24556	-79.015	293																										
50604	PARC TREMBLAY	R	1		Y	QUEBEC	1570 RUE PARADIS	ROUYN-NORANDA	CANADA	J9X	J9X 5V2	-5	48.23444	-78.98333	289	X					X												X								
50701	DEQUEN	C	0		P	QUEBEC	"546, DEQUEN"	SEPT-ÎLES	CANADA	G4R		-5	50.20972	-66.38583	3																										
50801	URSULINES	R	0		Y	QUEBEC	FACE AU 678 RUE HART	TROIS-RIVIERES	CANADA	G9A	G9A 4R8	-5	46.34806	-72.5375	11	X					X												X								
50802	DES DRAVEURS	R	1		Y	QUEBEC	AVENUE DES DRAVEURS	TROIS-RIVIERES	CANADA			-5	46.3502222	-72.54		X					X												X								
50901	POWELL	R	0		P	QUEBEC	"POWELL (ARVIDA), JONQUIERE"	SAGUENAY	CANADA	G7S		-5	48.43611	-71.19861	92																										
50902	PARC BERTHIER	R	1	X	Y	QUEBEC	"2885 BERthIER (ARVIDA), JONQUIERE"	SAGUENAY	CANADA	G7S	G7S 2J6	-5	48.43417	-71.185	93	X																									
51001	LA FLÈCHE	R	0		P	QUEBEC	"ECOLE LAVOIE, 3224 LA FLECHE, TRACY"	SOREL-TRACY	CANADA	J3R		-5	46.0175	-73.15889	11																										
51002	MARIE-VICTORIN	R	0		P	QUEBEC	"2775, MARIE-VICTORIN, TRACY"	SOREL-TRACY	CANADA	J3R		-5	46.03189	-73.15339	11																										
51101	JALBERT	C	0		P	QUEBEC	"628, BOUL. STE-MARthE"	THETFORD MINES	CANADA	G6G		-5	46.10599	-71.30898	335																										
51201	FRIGON	I	1		P	QUEBEC	363 RUE FRIGON	SHAWINIGAN	CANADA	G9N	G9N 3X4	-5	46.55444	-72.73556	113	X																	X								
51301	SAINTE-AMÉLIE	R	0		P	QUEBEC	"39, RUE MARQUETTE"	BAIE COMEAU	CANADA	G4Z	G4Z 1K4	-5	49.21916	-68.14829	37																										
51302	CENTRE CULTUREL	R	0		P	QUEBEC	"39, AVENUE MANCE"	BAIE COMEAU	CANADA	G4Z	G4Z 1M6	-5	49.2175	-68.14722	48																										
51401	SAINT-ÉTIENNE-DE-BEAUHARNOIS	U	0		P	QUEBEC	135 DUPUIS	ST-ETIENNE-DE-BEAUHARNOIS	CANADA	J0S		-5	45.25	-73.91667	37																										
51501	ZÉPHIRIN	A	1		Y	QUEBEC	701 RANG SAINT-MICHEL	ST. ZEPHIRIN-DE-COURVAL	CANADA	J0G	J0G 1V0	-5	46.0425	-72.66	50						X												X								
51601	FRANCOIS _2	U	0		P	QUEBEC	"POINTE D'ARGENTENAY, STE-FOY"	ST-FRANCOIS-ILE-D'ORLEANS	CANADA	G0A		-5	47.01667	-70.8	7																										
51701	SAINT-BARNABÉ	A	0		P	QUEBEC	"2E RANG, ST-BARNABE-NORD"	ST. BARNABE	CANADA	G0X		-5	46.48333	-72.88333	123																										
51801	ÉCOLE MARTEL 2	R	1		P	QUEBEC	FACE AU 113 LEON-XIII	SAINT-JOSEPH-DE-SOREL	CANADA	J3R		-5	46.045	-73.12972	12	X																									
51802	GEORGE	R	1		P	QUEBEC	80 RUE GEORGE	SOREL-TRACY	CANADA	J3P	J3P 1C1	-5	46.04472	-73.11389	11	X																									
51901	ROUTE 385 _FORESTVILLE	F	0		P	QUEBEC	"? 15 KM, ROUTE 385"	FORESTVILLE	CANADA	G0H		-5	48.85583	-69.09778	170																										
52001	CHARETTE	F	1		Y	QUEBEC	AU NORD DU 170 2E RANG	CHARETTE	CANADA	G0X		-5	46.44111	-72.89278	114						X												X								
52101	RÉMI	A	0		P	QUEBEC	"VOISIN DU 171, RANG ST-PAUL"	SAINT-REMI	CANADA	J0L		-5	45.20472	-73.64444	60																										
52201	SAINT-SIMON	A	1		Y	QUEBEC	"DERRIERE LE 83, 4E RANG EST"	SAINT-SIMON	CANADA	J0H		-5	45.71583	-72.84028	38						X												X								
52301	FAUSTIN	A	1		Y	QUEBEC	CHEMIN DU LAC (CARIBOU)	SAINT-FAUSTIN-LAC-CARRE	CANADA	J0T		-5	46.035	-74.48083	413						X												X								
52401	LA PËCHE	F	1		Y	QUEBEC	LAC PHILIPPE - MASHAM	LA PECHE	CANADA	J0X		-5	45.62222	-76.01778	191						X												X								
52501	LA TUQUE # 1	R	0		P	QUEBEC	LA TUQUE # 1	LA TUQUE	CANADA	G9X		-5																													
52502	LA TUQUE # 2	R	0		P	QUEBEC	LA TUQUE # 2	LA TUQUE	CANADA	G9X		-5																													
52601	VARENNES 1	R	1	X	Y	QUEBEC	4744 MONTEE BARONIE	VARENNES	CANADA	J3X		-5	45.72278	-73.37694	17			X	X		X												X			X					
52602	VARENNES 2	R	0		Y	QUEBEC	1870 ROUTE MARIE-VICTORIN	VARENNES	CANADA	J3X	J3X 1R3	-5	45.67417	-73.43833	11	X																									
52701	TEMISCAMING	I	1		P	QUEBEC	RUE BOUCHER	TEMISCAMING	CANADA	J0Z		-5	46.721389	-79.099722	249	X					X												X								
52801	AUCLAIR	F	1		Y	QUEBEC	66 RANG ST-GREGOIRE NORD	AUCLAIR	CANADA	G0L		-5	47.73333	-68.70722	301						X												X								
52901	COTE-OUIMET	F	0		P	QUEBEC	RANG OUIMET	ST-CHARLES-GARNIER	CANADA	G0K		-5	48.29417	-68.11361	419																										
53001	MARGUERITE	F	0		P	QUEBEC	343 CHEMIN KEMPT	CAUSAPSCAL	CANADA	G0J	G0J 1J0	-5	48.31778	-67.06833	465																										
53101	CAP-ÉTERNITÉ	F	0		P	QUEBEC	517 PRINCIPALE	RIVIERE-ETERNITE	CANADA	G0V		-5	48.25222	-70.40833	223																										
53201	PÉMONCA	F	1		Y	QUEBEC	ROUTE 167- LA DORE	LA DORE	CANADA	G8J		-5	48.80972	-72.73889	222						X												X								
53301	DESCHAMBAULT-RAMCO	A	1		Y	QUEBEC	"334, 3 E RANG - DESHAMBAULT"	DESCHAMBAULT	CANADA	G0A	G0A 1S0	-5	46.68222	-71.96778	48						X												X								
53401	CATHERINE	A	1		P	QUEBEC	FACE AU 56 LAURIER	STE-CAth.-DE-J-CARTIER	CANADA	G0A		-5	46.83694	-71.62278	126						X																				
53501	FRANÇOIS	A	1		Y	QUEBEC	"FACE AU 198,  ROYALE ÏLE D'ORLEANS"	SAINT-FRANÇOIS	CANADA	G0A		-5	47.01472	-70.86444	59						X																				
53601	N.-D.-DU-ROSAIRE	F	1		Y	QUEBEC	RANG ST-LOUIS	NOTRE-DAME-DU-ROSAIRE	CANADA	G0R		-5	46.85083	-70.45278	411						X												X								
53701	HILAIRE	F	1		Y	QUEBEC	RANG DORSET	ST-HILAIRE-DE-DORSET	CANADA	G0M		-5	45.82472	-70.85583	497						X												X								
53801	TINGWICK	A	1		Y	QUEBEC	CHEMIN RADAR ET WARWICK	TINGWICK	CANADA	J0A		-5	45.9075	-71.94917	243						X												X								
53901	ÉDOUARD	F	1		Y	QUEBEC	DERRIERE L'HOPITAL VILLAGE	LAC-EDOUARD	CANADA	G0A		-5	47.64722	-72.29056	366						X												X								
54001	MONTMORENCY	U	0		P	QUEBEC	MONTMORENCY	MONTMORENCY	CANADA	G0A		-5	47.31667	-71.15	670																										
54101	SUTTON	U	0		P	QUEBEC	SUTTON	SUTTON	CANADA	J0E		-5	45.07637	-72.67639	242																										
54102	ROUND TOP RIDGE	U	1	X	P	QUEBEC	MONT SUTTON/ROUND TOP RIDGE	SUTTON	CANADA	J0E		-5	45.088611	-72.556944	845						X															X	X				
54201	CHAPAIS	U	1		C	QUEBEC	CHAPAIS	CHAPAIS	CANADA	G0W		-5	49.82222	-74.97639	381						X																				
54301	VILLEROY	A	0		P	QUEBEC	408-12e RANG ET ROUTE 265	STE-FRANÃOISE	CANADA	G0S		-5	46.43333	-71.93333	103																					X					
54401	SAINT-ANICET	A	1	X	Y	QUEBEC	1128 DE LA GUERRE	SAINT-ANICET	CANADA	J0S	J0S 1M0	-5	45.11667	-74.28333	50	X	X	X	X		X									X	X	X	X			X	X	X			
54501	L'ASSOMPTION	R	1	X	Y	QUEBEC	801 ST-ETIENNE/ROUTE 344	L'ASSOMPTION	CANADA	J5W	J5W 4M9	-5	45.80942	-73.43473	10		X																X			X	X				
54601	MURDOCHVILLE-PARC	I	0		P	QUEBEC	603 DES BOULEAUX	MURDOCHVILLE	CANADA	G0E	G0E 1W0	-5	48.95472	-65.49694	534																										
54701	ARENA	R	0		P	QUEBEC	"RTE. 132, SECTEUR BECANCOUR"	BECANCOUR	CANADA	G0X		-5	46.34833	-72.435	8																										
54702	GENTILLY	R	0		P	QUEBEC	"RTE. 132, SECTEUR GENTILLY"	BECANCOUR	CANADA	G0X		-5	46.39694	-72.28667	9																										
54703	BÉCANCOUR _ARÉNA	R	1		P	QUEBEC	8310 BOUL. BECANCOUR	BECANCOUR	CANADA	G0X	G9H 3A5	-5	46.35	-72.43333	7	X		X	X		X												X								
54704	GARAGE FORD CARIGNAN	R	0		P	QUEBEC	"RTE. 132, SECTEUR GENTILLY"	BECANCOUR	CANADA	G0X		-5	46.39722	-72.28667	8																										
54801	STUKELY	F	1		Y	QUEBEC	CHEMIN MONTBEL	STUKELY-SUD	CANADA	J0E		-5	45.36583	-72.265	334						X												X								
54901	DITTON	F	1		Y	QUEBEC	RANG PETIT CANADA OUEST	LA PATRIE	CANADA	J0B		-5	45.37389	-71.25	475						X												X								
55001	MONT SAINT-MICHEL	F	1		Y	QUEBEC	215 4 IEME RANG GRAVEL	FERME NEUVE	CANADA	J0W		-5	46.76861	-75.43194	256						X												X								
55101	BELL	F	1		Y	QUEBEC	CHEMIN RIVIERE BELL	SENNETERRE	CANADA	J0Y		-5	48.4325	-77.19972	299						X												X								
55201	LEMIEUX	A	1	X	Y	QUEBEC	1290 RTE DES ATOCAS	LEMIEUX	CANADA	G0X	G0X 1S0	-5	46.30361	-72.06083	92		X				X															X	X				
55301	L'ACADIE	A	1	X	Y	QUEBEC	"FERME EXP., 1134 ROUTE 219"	SAINT-JEAN-SUR-RICHELIEU	CANADA	J0J	J2Y 1C4	-5	45.29417	-73.34888	35			X	X		X												X					X			
55401	ROY	I	1		P	QUEBEC	"RUE ROY & DORVAL, CAP MAD."	TROIS-RIVI?RES	CANADA	G0X	G8Y 8B7	-5	46.36194	-72.51111	10	X																									
55501	FRELIGHSBURG	F	1		C	QUEBEC	FRELIGHSBURG	FRELIGHSBURG	CANADA	J0J	J0J 1C0	-5	45.05167	-72.86167	203						X																				
55601	MINGAN	U	1		C	QUEBEC	MINGAN	MINGAN	CANADA	G0G	G0G 1V0	-5	50.27139	-64.22639	14						X																				
55701	CHARNY	R	1		Y	QUEBEC	"2254, ROTONDE, CHARNY"	LEVIS	CANADA	G6X	G6X 2L8	-5	46.708889	-71.266944	69						X																				
60101	HYDRO BLDG.	C	0		P	ONTARIO	88 SLATER ST.	OTTAWA	CANADA	K1P	K1P 5H1	-5	45.42111	-75.695	91																					X					
60102	EXPERIMENTAL FARM	R	0		P	ONTARIO	EXPERIMENTAL FARM	OTTAWA	CANADA	K2C		-5	45.38129	-75.71407	78																										
60103	GILMOUR STREET	C	0		P	ONTARIO	GILMOUR STREET	OTTAWA	CANADA	K2P		-5	45.41417	-75.69417	72																										
60104	OTTAWA DOWNTOWN	C	1	X	Y	ONTARIO	RIDEAU & WURTEMBURG	OTTAWA	CANADA	K1N	K1N 8L9	-5	45.43433	-75.676	72	X	X	X	X	X	X			X												X	X	X			
60105	NRC	R	0		P	ONTARIO	NRC MONTREAL ROAD	OTTAWA	CANADA	K1K		-5	45.44111	-75.61528	80																										
60106	OTTAWA CENTRAL	R	1		Y	ONTARIO	960 Carling Ave	Ottawa	CANADA	K1A	K1A 0C6	-5	45.382528	-75.714194	84	X	X	X	X	X	X			X																	
60201	MORTON TERMINAL DOCK	I	0		P	ONTARIO	MORTON TERMINAL DOCK	WINDSOR	CANADA	N9C		-5	42.26667	-83.09583	173																										
60202	CITY HALL	C	0		P	ONTARIO	444 WINDSOR AVE.	WINDSOR	CANADA	N9A		-5	42.3175	-83.03556	174																										
60203	TECUMSEH WATER WORKS	R	0		P	ONTARIO	9725 RIVERSIDE DR. EAST	WINDSOR	CANADA	N8P	N8P 1A2	-5	42.33806	-82.92722	175																										
60204	U.I.C. BLDG. _WINDSOR DOWNTOWN	C	1	X	Y	ONTARIO	467 UNIVERSITY AVE. WEST	WINDSOR	CANADA	N9A	N9A 5R2	-5	42.315778	-83.043667	184	X	X	X	X	X	X			X												X					
60206	3120 DOUGALL AVENUE	R	0		P	ONTARIO	3120 DOUGALL AVENUE	WINDSOR	CANADA	N9E	N9E 1S7	-5	42.27095	-83.01255	188																										
60209	E.C. ROWE & JEFFERSON	R	0		P	ONTARIO	E.C. ROWE & JEFFERSON	WINDSOR	CANADA	N8T		-5	42.2904	-82.93912	183																										
60211	COLLEGE & SOUTH ST. _WINDSOR WEST	R	1	X	Y	ONTARIO	COLLEGE & SOUth ST.	WINDSOR	CANADA	N9C		-5	42.292889	-83.073139	184	X	X	X	X	X	X			X												X	X	X			
60212	WRIGHT & WATER ST.	I	0		P	ONTARIO	WRIGHT & WATER ST.	WINDSOR	CANADA	N9C		-5	42.27583	-83.09667	173																										
60213	FILTRATION PLANT	R	0		P	ONTARIO	3665 WYANDOTTE ST. E.	WINDSOR	CANADA	N8Y		-5	42.32462	-82.99242	175																										
60214	ST. GABRIEL S.S.	R	0		P	ONTARIO	1400 ROSELAWN	WINDSOR	CANADA	N9E	N9E 1L8	-5	42.25696	-83.0213	183																										
60215	ST. ALEXANDER S.S.	R	0		P	ONTARIO	5305 ADSTOLL	WINDSOR	CANADA	N8T	N8T 1G9	-5	42.3	-82.95	183																										
60216	ST. GREGORY S.S.	R	0		P	ONTARIO	13765 ST. GREGORY ROAD	WINDSOR	CANADA	N8N	N8N 1K3	-5	42.31667	-82.85	176																										
60301	QUEEN'S UNIVERSITY	R	0		P	ONTARIO	QUEEN'S UNIVERSITY	KINGSTON	CANADA	K7L		-5	44.22611	-76.49722	87																										
60302	KINGSTON	R	0		P	ONTARIO	133 DALTON AVENUE	KINGSTON	CANADA	K7L	K7L 4X6	-5	44.23067	-76.50883	82						X		X	X												X					
60303	KINGSTON _2	R	1	X	Y	ONTARIO	752 KING ST. WEST	KINGSTON	CANADA	K7L	K7L 4X3	-5	44.21625	-76.52831	101	X	X	X	X	X	X			X												X					
60401	67 COLLEGE STREET	C	0		P	ONTARIO	67 COLLEGE STREET	TORONTO	CANADA	M5G	M5G 2M1	-5	43.66028	-79.3875	102																										
60402	ONTARIO SCIENCE CENTRE	R	0		N	ONTARIO	770 DON MILLS RD. SC. CTR.	TORONTO	CANADA	M3C	M3C 1T3	-5	43.715	-79.34111	105																										
60403	EVANS & ARNOLD	I	0		N	ONTARIO	EVANS & ARNOLD AVE.	TORONTO	CANADA	M8Z		-5	43.61917	-79.51833	101																					X					
60404	5126 YONGE STREET	R	0		N	ONTARIO	5126 YONGE STREET	TORONTO	CANADA	M2N		-5	43.76361	-79.41611	181																										
60405	JOHN STREET PUMP STATION	I	0		N	ONTARIO	JOHN STREET PUMP STATION	TORONTO	CANADA	M5V		-5	43.63639	-79.3925	76																										
60406	ROSEHILL RESERVOIR	R	0		N	ONTARIO	ROSEHILL RESERVOIR	TORONTO	CANADA	M4T		-5	43.68444	-79.39111	134																										
60408	DANFORTH & ROBINSON	C	0		N	ONTARIO	DANFORth & ROBINSON	TORONTO	CANADA	M1L		-5	43.69306	-79.27889	126																										
60409	REDLAND CRESCENT	R	0		N	ONTARIO	REDLAND CRESCENT	TORONTO	CANADA	M1M		-5	43.70917	-79.2375	143																										
60410	LAWRENCE & KENNEDY _Toronto East_	R	1		Y	ONTARIO	LAWRENCE & KENNEDY	TORONTO	CANADA	M1P		-5	43.74792	-79.27406	172			X	X	X	X			X																	
60411	PHARMACY & HWY 401	R	0		N	ONTARIO	PHARMACY & HWY 401	TORONTO	CANADA	M1T		-5	43.76902	-79.31463	172																										
60412	BATHURST & WILSON	R	0		N	ONTARIO	BAthURST & WILSON	TORONTO	CANADA	M3H		-5	43.73583	-79.43667	181																										
60413	CENTENNIAL PARK _Etobicoke West_	R	1	X	Y	ONTARIO	ELMCREST ROAD	TORONTO	CANADA	M9C		-5	43.64852	-79.59138	137			X	X	X	X			X												X	X				
60414	SHERBOURNE & WILTON ST.	I	0		N	ONTARIO	SHERBOURNE & WILTON ST.	TORONTO	CANADA	M5A		-5	43.6475	-79.36778	78																										
60415	MISSISSAGUA HOSPITAL _Mississauga_	R	0		N	ONTARIO	QUEENSWAY W & HURONTARIO	MISSISSAUGUA	CANADA	L5B		-5	43.56862	-79.61058	98	X	X	X			X		X	X																	
60416	381 YONGE STREET	C	0		N	ONTARIO	381 YONGE STREET	TORONTO	CANADA	M4Y	M5B 1S1	-5	43.66667	-79.38333	111																										
60417	26 BREADALBANE STREET	C	0		N	ONTARIO	26 BREADALBANE STREET	TORONTO	CANADA	M5G		-5	43.66083	-79.38583	102																										
60418	JUNCTION TRIANGLE	C	0		N	ONTARIO	RUSKIN & PERth ST.	TORONTO	CANADA	M6P		-5	43.662933	-79.451538	119																					X					
60419	CN TOWER	C	0		N	ONTARIO	CN TOWER	TORONTO	CANADA	M5H		-5	43.65	-79.38333	108																										
60420	LEASIDE HYDRO STATION	C	0		N	ONTARIO	LEASIDE HYDRO STATION	TORONTO	CANADA	M4H		-5	43.7	-79.35	90																										
60421	YONGE ST. & FINCH AVE. _Toronto North_	C	1		Y	ONTARIO	YONGE ST. & FINCH AVE.	TORONTO	CANADA	M2N		-5	43.77949	-79.41682	181			X	X	X	X			X																	
60422	33 EDGAR AVE.	C	0		N	ONTARIO	33 EDGAR AVE.	TORONTO	CANADA	M9M	M9M 2J2	-5	43.71667	-79.53333	135																					X					
60423	CLEARVIEW HEIGHTS	R	0		N	ONTARIO	CLEARVIEW HEIGHTS	TORONTO	CANADA	M6M		-5	43.7	-79.48333	129																										
60424	BAY & WELLESLEY _Toronto Downtown_	C	0	X	Y	ONTARIO	BAY & WELLESLEY	TORONTO	CANADA	M4Y		-5	43.66297	-79.38811	115	X	X	X			X			X												X					
60425	QUEEN & UNIVERSITY	C	0		N	ONTARIO	QUEEN & UNIVERSITY	TORONTO	CANADA	M5H		-5	43.65028	-79.38694	90																										
60426	CLARKSON REFINERY	I	0		N	ONTARIO	"MEADOW PK, APPLE LANE C C"	TORONTO	CANADA	L5H		-5	43.5075	-79.608333	77																										
60427	GAGE INSTITUTE	C	1	X	Y	ONTARIO	223 COLLEGE STREET	TORONTO	CANADA	M5T	M5T 1R4	-5	43.658222	-79.397183	122																					X	X	X			
60428	BRAMPTON _Brampton_	R	1	X	Y	ONTARIO	525 MAIN ST. N. BRAMPTON	BRAMPTON	CANADA	L6X	L6X 1N9	-5	43.69875	-79.78092	234			X	X	X	X			X												X	X				
60429	JUDSON ST. & ETONA CT. _Etobicoke_ (moved to kipling)	R	0		N	ONTARIO	1 ETONA COURT	TORONTO	CANADA	M8Z	M8Z 1A4	-5	43.613587	-79.507537	90			X	X	X	X			X												X					
60430	125 RESOURCES ROAD	C	1	X	Y	ONTARIO	125 RESOURCES ROAD	TORONTO	CANADA	M9P	M9P 3V6	-5	43.709444	-79.5435	149	X	X	X	X	X	X			X																	
60431	MSC/DOWNSVIEW	C	0		N	ONTARIO	4905 DUFFERIN STREET	TORONTO	CANADA	M3H	M3H 5T4	-5	43.78111	-79.46833	183						X																				
60432	FRANK MCKECHNIE COMMERCIAL CENTRE _Mississauga_	C	0		N	ONTARIO	310 BRISTOL ROAD E.	MISSISSAUGA	CANADA	L4Z	L4Z 3V5	-5	43.61583	-79.6525	165						X			X																	
60433	BAY & WELLESLEY _Toronto Downtown	C	1		P	Ontario		TORONTO	CANADA			-5	43.66417	-79.38722	107	X	X	X	X	X	X			X																	
60434	Mississauga UofT Campus	C	1		Y	ONTARIO	3359 Mississauga Road North	MISSISSAUGA	CANADA	M3H	M3H 5T4	-5	43.54697	-79.65869	110	X	X	X	X	X	X			X																	
60435	Etobicoke South-2	C	1	X	Y	ONTARIO	461 Kipling Avenue	TORONTO	CANADA	M3H		-5	43.610761	-79.52194	92	X		X	X	X	X			X												X	X	X			
60501	WOODLANDS PARK	C	0		N	ONTARIO	BARTON & WENTWORth	HAMILTON	CANADA	L8L		-5	43.25917	-79.84389	83																										
60502	BURLINGTON & GAGE	I	0		N	ONTARIO	BURLINGTON & GAGE	HAMILTON	CANADA	L8L		-5	43.26306	-79.82361	78																										
60503	CHATHAM & FRID	I	0		N	ONTARIO	CHATHAM & FRID	HAMILTON	CANADA	L8S		-5	43.26306	-79.89389	89																										
60505	NORTH PARK	R	0		N	ONTARIO	NORTH PARK	HAMILTON	CANADA	L8H		-5	43.28222	-79.78833	74																										
60507	HUGHSON & HUNTER	C	0		N	ONTARIO	HUGHSON & HUNTER	HAMILTON	CANADA	L8N		-5	43.25361	-79.86944	100																										
60510	STRATHEARN	I	0		N	ONTARIO	STRATHEARN	HAMILTON	CANADA	L8H		-5	43.26389	-79.78556	74																										
60511	467 BEACH BLVD.	R	0		N	ONTARIO	467 BEACH BLVD.	HAMILTON	CANADA	L8H		-5	43.275799	-79.781415	74																										
60512	BEASLEY PARK _Hamilton Downtown_	C	1	X	Y	ONTARIO	ELGIN & KELLY	HAMILTON	CANADA	L8R	L8L 4Y1	-5	43.25778	-79.86167	94	X	X	X	X	X	X			X												X	X	X			
60513	HAMILTON MOUNTAIN _Hamilton Mountain_	R	1		Y	ONTARIO	VICKERS RD. & EAST 18th. ST.	HAMILTON	CANADA	L9A		-5	43.22942	-79.86278	212	X		X	X	X	X			X																	
60514	NASH RD. & KENTLEY DR.	R	0		N	ONTARIO	NASH RD. & KENTLEY DR.	HAMILTON	CANADA	L8E		-5	43.23333	-79.76667	84																										
60515	MAIN ST. & HWY 403 _Hamilton West_	R	0		N	ONTARIO	MAIN ST. & HWY 403	HAMILTON	CANADA	L8P		-5	43.25744	-79.90775	99																										
60516	HARBOUR BAY FRONT	I	0		N	ONTARIO	HILLYARD STREET	HAMILTON	CANADA	L0P		-5	43.48333	-79.91667	319																										
60517	CONFEDERATION PARK	I	0		N	ONTARIO	CONFEDERATION PARK	HAMILTON	CANADA	L8E		-5	43.24722	-79.75111	74																										
60518	HOMESIDE II	I	0		N	ONTARIO	HOMESIDE II	HAMILTON	CANADA	L8H	L8H 5L1	-5	43.24917	-79.79472	81																										
60519	NIAGARA & LAND STREET	I	0		N	ONTARIO	NIAGARA & LAND STREET	HAMILTON	CANADA	L8L	L8L 6A7	-5	43.27	-79.84056	74																										
60520	GERTRUDE & DEPEW ST.	I	0		N	ONTARIO	GERTRUDE & DEPEW ST.	HAMILTON	CANADA	L8H		-5	43.25	-79.81667	82																										
60602	ASH STREET	R	0		N	ONTARIO	ASH STREET	SUDBURY	CANADA	P3C	P3C 4E5	-5	46.49472	-81.00778	290																										
60605	19 LISGAR STREET	C	0		N	ONTARIO	19 LISGAR STREET	SUDBURY	CANADA	P3C	P3C 1S4	-5	46.49361	-80.99333	259																										
60606	KENNEDY STREET	C	0		N	ONTARIO	KENNEDY STREET	SUDBURY	CANADA	P3A	P3A 2E1	-5	46.52333	-80.9425	272																										
60607	SCIENCE CENTRE NORth _Sudbury_	R	0		N	ONTARIO	100 RAMSEY LAKE RD.	SUDBURY	CANADA	P3E	P3E 5S9	-5	46.47569	-80.96294	263	X	X	X			X																				
60608	MARKET ST. COPPER CLIFF	I	0		N	ONTARIO	MARKET ST. COPPER CLIFF	SUDBURY	CANADA	P0M	P0M 1N0	-5	46.46667	-81.06667	267																										
60609	RAMSEY LAKE ROAD _Sudbury_	C	1		Y	ONTARIO	1222 RAMSEY LAKE ROAD	SUDBURY	CANADA	P3E	P3E 6J7	-5	46.47567	-80.963	259	X					X			X																	
60610	SUDBURY	R	1		Y	ONTARIO	155 ELM STREET	SUDBURY	CANADA	P3E	P3E 6J7	-5	46.49194	-81.00311	271	X		X	X	X	X														X						
60701	PROV ONTARIO BUILDING	C	0		N	ONTARIO	LAND REG. OFFICE / QUEEN STREET	SAULT STE. MARIE	CANADA	P6A	P6A 2J9	-5	46.51111	-84.33167	191																										
60702	ANNA MCREA PUBLIC SCHOOL	R	0		N	ONTARIO	ANNA MCREA PUBLIC SCHOOL	SAULT STE. MARIE	CANADA	P6A		-5	46.50806	-84.28056	190																										
60703	BAYVIEW & YOUNG	I	0		N	ONTARIO	BAYVIEW & YOUNG	SAULT STE. MARIE	CANADA	P6C		-5	46.55444	-84.38528	216																										
60704	QUEEN & ELGIN	C	0		N	ONTARIO	QUEEN & ELGIN	SAULT STE. MARIE	CANADA	P6A		-5	46.51194	-84.33333	183																										
60705	550 QUEEN STREET WEST	R	0		N	ONTARIO	550 QUEEN STREET WEST	SAULT STE. MARIE	CANADA	P6A	P6A 1A6	-5	46.51944	-84.35556	187																										
60706	FARWELL PUMP HOUSE	I	0		N	ONTARIO	FARWELL PUMP HOUSE	SAULT STE. MARIE	CANADA	P6C		-5	46.52917	-84.36111	188																										
60707	WM. MERRIFIELD SCHOOL _Sault Ste. Marie_	I	0		N	ONTARIO	331 PATRICK ST.	SAULT STE. MARIE	CANADA	P6C	P6C 3Y9	-5	46.52786	-84.35432	188	X	X	X			X	X	X	X	X																
60708	BONNEY ST. PUMPHOUSE	I	0		N	ONTARIO	BONNEY STREET	SAULT STE. MARIE	CANADA	P6C		-5	46.51667	-84.38333	183																										
60709	SAULT COLLEGE _Sault Ste. Marie_	I	1		Y	ONTARIO	"443 NORTHERN AVE., SAULT COLLEGE"	SAULT STE. MARIE	CANADA	P6B	P6B 4J1	-5	46.53319	-84.30992	252	X		X	X	X	X			X																	
60801	HOSPITAL	C	0		N	ONTARIO	35 ALGOMA ST. NORTH	THUNDER BAY	CANADA	P7A	P7A 4Z6	-5	48.43694	-89.22389	212																										
60802	185 GORE STREET	I	0		N	ONTARIO	185 GORE STREET	THUNDER BAY	CANADA	P7E	P7E 3R2	-5	48.36583	-89.28778	192																										
60805	521 MEMORIAL AVENUE	C	0		N	ONTARIO	521 MEMORIAL AVENUE	THUNDER BAY	CANADA	P7B	P7B 3Y6	-5	48.42087	-89.23855	197																										
60806	435 JAMES S.	R	0		N	ONTARIO	435 JAMES S.	THUNDER BAY	CANADA	P7E	P7E 6S7	-5	48.37778	-89.29028	196																										
60807	615 JAMES STREET SOUth _thunder Bay_	R	0		N	ONTARIO	615 JAMES STREET SOUTH	THUNDER BAY	CANADA	P7E	P7E 6P6	-5	48.37303	-89.29157	197																										
60809	421 JAMES STREET SOUth _thunder Bay_	R	1		Y	ONTARIO	421 JAMES STREET SOUTH	THUNDER BAY	CANADA	P7E		-5	48.37939	-89.29017	207			X	X	X	X			X																	
60901	QUEEN'S PARK	C	0		N	ONTARIO	KING & RECTORY	LONDON	CANADA	N5W		-5	42.98917	-81.22417	205																										
60902	372 DUNDAS	C	0		N	ONTARIO	372 DUNDAS	LONDON	CANADA	N6B	N6B 1V7	-5	42.98639	-81.24083	247																										
60903	LONDON AQI SITE _London_ 900 Highbury Ave.	C	1	X	Y	ONTARIO	900 HIGHBURY AVENUE	LONDON	CANADA	N5Y	N5Y 1A4	-5	43.00672	-81.20642	273	X	X	X	X	X	X			X												X					
60904	LONDON	R	1		Y	ONTARIO	42 ST. JULIEN STREET	LONDON	CANADA	N5Z	N5Z 2M5	-5	42.97446	-81.20086	244			X	X	X	X														X						
61001	156 VICTORIA STREET	C	0		N	ONTARIO	156 VICTORIA STREET	SARNIA	CANADA	N7T		-5	42.97306	-82.40611	183																										
61002	YACHT CLUB	R	0		N	ONTARIO	1220 FORT STREET	SARNIA	CANADA	N7V		-5	43.00271	-82.41682	176																										
61003	LAMBTON COLLEGE	R	0		N	ONTARIO	185 EXMOUth STREET	SARNIA	CANADA	N7T		-5	42.98306	-82.40306	182																										
61004	CENTENNIAL PARK _Sarnia_	R	1	X	Y	ONTARIO	FRONT ST. AT C.N. TRACKS	SARNIA	CANADA	N7T		-5	42.98228	-82.40508	182	X		X	X	X	X			X												X					
61005	MTC SHED	R	0		N	ONTARIO	CON. RD 26 MANDAUMIN	SARNIA	CANADA	N0N		-5	42.95	-82.2	206																										
61006	6th. LINE MOORE TWSP	I	0		N	ONTARIO	6th. LINE MOORE TWSP	SARNIA	CANADA	N7T		-5	42.96667	-82.4	185																										
61102	139 GEORGE STREET	C	0		N	ONTARIO	139 GEORGE STREET	PETERBOROUGH	CANADA	K9J	K9J 3G6	-5	44.29869	-78.31978	192																										
61103	500 GEORGE STREET	C	0		N	ONTARIO	500 GEORGE STREET	PETERBOROUGH	CANADA	K9H	K9H 3R9	-5	44.30889	-78.32056	205																										
61104	10 HOSPITAL DRIVE _Peterborough_	R	1	X	Y	ONTARIO	10 HOSPITAL DRIVE	PETERBOROUGH	CANADA	K9H	K9J 8M1	-5	44.30192	-78.34622	236			X	X	X	X			X												X					
61201	MEMORIAL PARK _Cornwall_	R	1		Y	ONTARIO	BEDFORD & thIRD ST.	CORNWALL	CANADA	K6H		-5	45.01797	-74.73522	59			X	X	X	X			X																	
61301	NORTH ST. & GENEVA ST.	C	0		N	ONTARIO	NORth ST. & GENEVA ST.	ST. CAthARINES	CANADA	L2R		-5	43.16472	-79.23917	107																										
61302	ARGYLE CRESCENT _St. Catharines_	C	1		Y	ONTARIO	ARGYLE CRESCENT	ST. CAthARINES	CANADA	L2P		-5	43.16006	-79.23475	109			X	X	X	X			X																	
61303	71 KING STREET	C	0		N	ONTARIO	71 KING STREET	ST. CAthARINES	CANADA	L2R	L2R 3H7	-5	43.1581	-79.24669	105																										
61401	DALHOUSIE & QUEEN	C	0		N	ONTARIO	DALHOUSIE & QUEEN	BRANTFORD	CANADA	N3T		-5	43.13928	-80.26588	212																										
61402	324 GRAND RIVER AVE. _Brantford_	C	1		Y	ONTARIO	324 GRAND RIVER AVE.	BRANTFORD	CANADA	N3T		-5	43.13861	-80.29264	210			X	X	X	X			X																	
61501	WEBER PARK	C	0		N	ONTARIO	EDNA & FREDERICK	KITCHENER	CANADA	N2H		-5	43.45778	-80.47222	327																										
61502	WEST AVE. & HOMEWOOD _Kitchener_	C	1	X	Y	ONTARIO	WEST AVE. & HOMEWOOD	KITCHENER	CANADA	N2M		-5	43.44383	-80.50381	325			X	X	X	X			X												X	X				
61601	REBECCA & WOODSIDE	R	0		N	ONTARIO	REBECCA & WOODSIDE	OAKVILLE	CANADA	L6L		-5	43.4175	-79.69917	84																										
61602	BRONTE RD. & WOBURN CRES. _Oakville_	R	0		N	ONTARIO	BRONTE RD. & WOBURN CRES.	OAKVILLE	CANADA	L6L		-5	43.400621	-79.727495	90																					X					
61603	"8th LINE/GLENASHTON DR., HALTON RESERVE"	R	1		Y	ONTARIO	8th LINE/GLENASHTON DR.; HALTON RESERVE	OAKVILLE	CANADA	L6H		-5	43.48692	-79.70228	177			X	X	X	X			X																	
61701	RITSON RD. & OLIVE AVE. _Oshawa_	R	0		N	ONTARIO	RITSON RD. & OLIVE AVE.	OSHAWA	CANADA	L1H		-5	43.88908	-78.84996	99			X			X			X																	
61702	DURHAM COLLEGE	R	1		Y	ONTARIO	2200 SIMCOE STREET NORth	OSHAWA	CANADA	P0A	L1H 7K4	-5	43.94594	-78.89492	162			X	X	X	X			X																	
61801	FARQUHAR & WYNDHAM	C	0		N	ONTARIO	FARQUHAR & WYNDHAM	GUELPH	CANADA	N1H		-5	43.54333	-80.24667	332																										
61802	EXHIBITION PARK ARENA _Guelph_	R	1		Y	ONTARIO	70 DIVISION STREET; EXHIBITION PARK	GUELPH	CANADA	N1H	N1H 1R3	-5	43.55161	-80.26417	335			X	X	X	X			X																	
61901	WALPOLE ISLAND	U	0		N	ONTARIO	WALPOLE ISLAND	WALPOLE ISLAND	CANADA	N0P		-5	42.53833	-82.41111	174																					X					
61902	BEAR CREEK/WALLACEBURG	U	1	X	Y	ONTARIO	8147 MEADOWVALE LINE	CHAthAM-KENT	CANADA			-5	42.53558	-82.3897	175																					X	X	X			
62001	CHIPPEWA ST. - DND _North Bay_	R	1		Y	ONTARIO	540 CHIPPEWA ST. N.; Dept. of National Defence	NORth BAY	CANADA	P1B		-5	46.32323	-79.44928	223			X	X	X	X			X																	
62101	COLLEGE OF AGRIC.	A	0		N	ONTARIO	COLLEGE OF AGRIC.	HURON PARK	CANADA	N0M		-5	43.28333	-81.5	251																										
62201	MOE WATER PUMP STN. _Merlin_	A	0		N	ONTARIO	MOE WATER PUMP STN.	MERLIN	CANADA	N0P		-5	42.24407	-82.22301	191						X			X																	
62301	PUB. BLDG.	A	0		N	ONTARIO	PUB. BLDG.	thEDFORD	CANADA	N0M		-5	43.1646	-81.8574	206																										
62401	PUC BLDG.	A	0		N	ONTARIO	PUC BLDG.	PARKHILL	CANADA	N0M		-5	43.16667	-81.68333	203																										
62501	TIVERTON _Tiverton_	U	1		Y	ONTARIO	BRUCE NUCLEAR VISITOR CTR	TIVERTON	CANADA	N0G		-5	44.31447	-81.54972	230	X		X	X	X	X			X																	
62601	EXPERIMENTAL FARM _Simcoe_	A	1	X	Y	ONTARIO	EXPERIMENTAL FARM	SIMCOE	CANADA	N0A		-5	42.856896	-80.270282	236	X		X	X	X	X			X												X	X	X			
62701	PROVINCIAL PARK _Long Point_	U	0		N	ONTARIO	PROVINCIAL PARK	LONG POINT	CANADA	N0E		-5	42.58333	-80.38333	173																										
62801	WEBER & UNIVERSITY	R	0		N	ONTARIO	WEBER & UNIVERSITY	WATERLOO	CANADA	N2J		-5	43.48333	-80.51667	320																										
62901	ALLENDALE AVE.	R	0		N	ONTARIO	ALLENDALE AVE.	NIAGARA FALLS	CANADA	L2G		-5	43.08333	-79.08333	196																										
62902	STANLEY/HWY 405	R	0		N	ONTARIO	STANLEY/HWY 405	NIAGARA FALLS	CANADA	L2E		-5	43.1	-79.08333	182																										
63001	HWY 2 & NORth SHORE BLVD. _Burlington_	R	1		Y	ONTARIO	HWY 2 & NORth SHORE BLVD.	BURLINGTON	CANADA	L7S		-5	43.31511	-79.80264	83			X	X	X	X			X																	
63101	509 VICTORIA STREET E.	R	0		N	ONTARIO	509 VICTORIA STREET E.	ALLISTON	CANADA	L9R		-5	44.15	-79.85	219																										
63201	HWY 47 & HWY 48 _York Region_	R	0		N	ONTARIO	HWY 47 & HWY 48	STOUFFVILLE	CANADA	L4A		-5	43.96458	-79.26607	257						X	X														X					
63301	HWY 117 & PAINT LAKE ROAD _Dorset_	F	1	X	Y	ONTARIO	HWY 117 & PAINT LAKE ROAD	DORSET	CANADA	P0A		-5	45.22428	-78.93294	321						X			X												X					
63401	HAWKEYE LAKE	F	0		N	ONTARIO	HAWKEYE LAKE	HAWKEYE LAKE	CANADA	P0T		-5	48.66667	-89.48333	437																										
63501	HIGH FALLS	F	0		N	ONTARIO	HIGH FALLS ROAD	HIGH FALLS	CANADA	P0M		-5	46.3807	-81.5448	219																										
63601	LONGWOODS CONS. AUthORITY	U	0		N	ONTARIO	LONGWOODS CONS. AUthORITY	LONGWOODS	CANADA	N0L		-5	42.88333	-81.48333	240																					X	X				
63701	"POINT BLAKE ""CONSERVATION AREA"" _Grand Bend_"	U	1		Y	ONTARIO	HWY 21 & COUNTY RD 83	GRAND BEND	CANADA	N0M		-5	43.33308	-81.74289	189			X	X	X	X			X																	
63801	NANTICOKE VILLAGE	R	0		N	ONTARIO	RAINHAM RD (NEAR STELCO GATE)	NANTICOKE	CANADA	N0A		-5	42.81667	-80.08333	185																					X					
63802	SOUth WALPOLE	I	0		N	ONTARIO	"WALPOLE S. PS, SANDUSK RD."	NANTICOKE	CANADA	N0A		-5	42.83333	-80.03333	190																					X					
63901	CLOUD RIVER	U	0		N	ONTARIO	CLOUD RIVER	CLOUD RIVER	CANADA	P0T		-5	48.15	-89.45	274																										
64001	EXPERIMENTAL LAKES AREA	F	1		C	ONTARIO	EXP. LAKES AREA	EXP. LAKES AREA	CANADA	P0X		-6	49.66389	-93.72111	369						X																				
64101	ALGOMA	F	1		C	ONTARIO	ALGOMA	ALGOMA	CANADA	P0S		-5	47.03361	-84.37889	411						X																				
64201	CHALK RIVER	F	0		N	ONTARIO	CHALK RIVER	CHALK RIVER	CANADA	K0J		-5	46.06278	-77.40472	184						X																				
64301	LONGWOODS	U	0		N	ONTARIO	LONGWOODS	LONGWOODS	CANADA	N0L		-5	42.88472	-81.48056	239						X																				
64401	EGBERT	A	1	X	C	ONTARIO	EGBERT	EGBERT	CANADA	L0M		-5	44.231111	-79.783056	253						X															X	X				
64501	PORTAGE/CHURCH ST.	R	0		N	ONTARIO	PORTAGE/CHURCH ST.	FORT FRANCES	CANADA	P9A		-6	48.61667	-93.4	340																										
64502	ROBERT MOORE P.S.	R	0		N	ONTARIO	ARMIT AVE. & FORth ST. E.	FORT FRANCES	CANADA	P9A		-6	48.63333	-93.38333	342																										
64601	PT. PETRE	U	1	X	Y	ONTARIO	PT. PETRE	PT. PETRE	CANADA	K0K		-5	43.839897	-77.155138	74																					X	X	X			
64701	1385 RIVER ROAD _Georgian Bay South_	U	0		N	ONTARIO	1385 RIVER ROAD	WASAGA BEACH	CANADA	L0L	?	-5	44.56667	-80	175																										
64801	EARL LANTZ PROPERTY	I	0		N	ONTARIO	EARL LANTZ PROPERTY	BEACHVILLE	CANADA	N0M		-5	43.1	-80.86667	308																										
64901	185 KING ST. S.	I	0		N	ONTARIO	185 KING ST. S.	thOROLD	CANADA	L2V		-5	43.11667	-79.2	178																										
65001	OLD PUC _Barrie_	R	1		Y	ONTARIO	85 PERRY STREET	BARRIE	CANADA	L4N		-5	44.39222	-79.70417	250			X	X	X	X			X																	
65101	EAGLE ST. & McCAFFREY RD. _Newmarket_	R	1	X	Y	ONTARIO	EAGLE ST. & McCAFFREY RD.	NEWMARKET	CANADA	L3X		-5	44.04431	-79.48325	273			X	X	X	X			X												X	X				
65201	7 BAY STREET _Parry Sound_	R	1		Y	ONTARIO	7 BAY STREET	PARRY SOUND	CANADA	P2A		-5	45.33786	-80.03817	181			X	X	X	X			X																	
65301	ELGIN WATER TREATMENT PLANT _Port Stanley_	C	1		Y	ONTARIO	43665 DEXTER LINE	PORT STANLEY	CANADA	N0L	N0L 2L0	-5	42.67208	-81.16289	217						X			X																	
65401	WATER TREATMENT PLANT _Belleville_	R	1		Y	ONTARIO	2 SIDNEY STREET	BELLEVILLE	CANADA	K8P	K8P 3Y7	-5	44.15053	-77.3955	85			X	X	X	X			X																	
65501	BURNT ISLAND	U	1	X	Y	ONTARIO	BURNT ISLAND	BURNT ISLAND	CANADA			-5	45.8081	-82.9508	182																										
65601	ESSEX SITE	C	0		N	ONTARIO	360 FAIRVIEW AVE. W.	ESSEX	CANADA	N8M	N8M 1Y6	-5	42.16	-82.83333	193	X		X	X		X			X																	
65701	MORRISBURG	C	1		Y	ONTARIO	COUNTY RD.2 / MORRISGURG WATER TOWER	MORRISBURG	CANADA	K0C	K0C 1X0	-5	44.89975	-75.18994	69						X			X																	
65801	CHATHAM	C	1		Y	ONTARIO	435 GRAND AVENUE W.	CHATHAM	CANADA	N7L	N7L 3Z4	-5	42.40369	-82.20831	194	X		X	X	X	X			X																	
65901	PICKLE LAKE	U	1		C	ONTARIO	PICKLE LAKE	PICKLE LAKE	CANADA			-6	51.45222	-90.2175	393						X																				
66001	FRASERDALE	U	0		C	ONTARIO	FRASERDALE	FRASERDALE	CANADA			-5	49.88333	-81.56666	167						X																				
66101	BONNER LAKE	U	1		C	ONTARIO	Bonner Lake	Moonbeam	CANADA	P0L	P0L 1V0	-5	49.386389	-82.121389	245						X																				
66201	PETAWAWA	F	1		Y	ONTARIO	"Natural Resources Canada, Petawawa Research Forest Facility, Clouthier Rd.,"	CHALK RIVER (Petawawa)	CANADA			-5	45.996722	-77.441194	180						X			X																	
70101	270 OSBORNE STREET	C	0		N	MANITOBA	270 OSBORNE STREET	WINNIPEG	CANADA	R3L	R3C 1V7	-6	49.87381	-97.14167	227																										
70102	PORTAGE & WOODLAWN	R	0		N	MANITOBA	PORTAGE & WOODLAWN	WINNIPEG	CANADA	R3J	R3J 0L3	-6	49.87778	-97.23333	232																										
70103	HARTFORD & MAIN	R	0		N	MANITOBA	HARTFORD & MAIN	WINNIPEG	CANADA	R2V	R2V 0W3	-6	49.93639	-97.11775	236																										
70104	UNION STOCK YARDS	I	0		N	MANITOBA	UNION STOCK YARDS	WINNIPEG	CANADA	R2J	R2J 0K4	-6	49.88	-97.08556	226																										
70105	MARTIN & HENDERSON HWY	R	0		N	MANITOBA	MARTIN & HENDERSON HWY	WINNIPEG	CANADA	R2L	R2L 1M9	-6	49.91694	-97.11333	225																										
70110	KENNEDY & ST. MARY'S	C	0		N	MANITOBA	KENNEDY & ST. MARY'S	WINNIPEG	CANADA	R3C	R3C 1S8	-6	49.88972	-97.14667	232																										
70113	WINDERMERE & ROCKMAN	I	0		N	MANITOBA	WINDERMERE & ROCKMAN	WINNIPEG	CANADA	R3T	R3T 1A3	-6	49.84778	-97.155	227																										
70115	PORTAGE & MINTO	C	0		N	MANITOBA	PORTAGE & MINTO	WINNIPEG	CANADA	R3G	R3G 0S8	-6	49.88444	-97.18	239																										
70116	SMITH & KING	I	0		N	MANITOBA	SMIth & KING	WINNIPEG	CANADA	R3B	R3B 2H2	-6	49.89583	-97.14389	237																										
70118	CITY OF WINNIPEG FLOOD PUMP ST	R	1		Y	MANITOBA	299 SCOTIA ST.	WINNIPEG	CANADA	R2V	R2V 1W3	-6	49.93207	-97.11317	227		X	X	X	X	X														X						
70119	65 ELLEN STREET	C	1	X	Y	MANITOBA	65 ELLEN STREET	WINNIPEG	CANADA	R3A	R3A 0Z8	-6	49.89795	-97.14665	229	X	X	X	X	X	X	X													X	X	X	X			
70120	ST. VITAL - ST.BONIFACE COMMUN	R	0		N	MANITOBA	604 ST. MARY'S RD.	WINNIPEG	CANADA	R2M	R2M 3L5	-6	49.86278	-97.11194	230																										
70121	301 WESTON STREET	C	0		N	MANITOBA	301 Weston	WINNIPEG	CANADA	R2N	R3E 3H4	-6	49.8	-97.1	227																										
70201	11th ST. & PRINCESS AVE.	C	0		N	MANITOBA	11th ST. & PRINCESS AVE.	BRANDON	CANADA	R7A	R7A 0P9	-6	49.84693	-99.95258	379																										
70202	12th ST. & HILL AVE.	R	0		N	MANITOBA	12th ST. & HILL AVE.	BRANDON	CANADA	R7A		-6	49.83187	-99.95402	388																										
70203	ASSINIBOINE COMM. COLLEGE	R	1		Y	MANITOBA	1430 VICTORIA AVENUE EAST	BRANDON	CANADA	R7A	R7A 2A9	-6	49.83913	-99.9205	385			X	X	X	X	X													X						
70301	PROVINCIAL BUILDING	C	1	X	Y	MANITOBA	143 MAIN STREET	FLIN FLON	CANADA	R8A	R8A 1K2	-6	54.765	-101.87528	339	X						X													X			X			
70501	THOMSON	C	1		P	MANITOBA	THOMSON DRIVE	THOMSON	CANADA			-6	55.74719	-97.87353	205	X						X	X																		
80102	3211 ALBERT STREET	R	0		N	SASKATCHEWAN	3211 ALBERT STREET	REGINA	CANADA	S4S	S4S 5W6	-6	50.4275	-104.615	574																										
80108	12th AVENUE & SMITH ST.	C	0		N	SASKATCHEWAN	12th AVENUE & SMIth ST.	REGINA	CANADA	S4S		-6	50.39889	-104.61389	577																										
80109	1620 ALBERT STREET	C	0		N	SASKATCHEWAN	1620 ALBERT STREET	REGINA	CANADA	S4T	S4P 2S6	-6	50.45306	-104.61778	584																										
80110	2505 11th. AVENUE	C	1	X	Y	SASKATCHEWAN	2505 11th. AVENUE	REGINA	CANADA	S4P	S4P 0K6	-6	50.45017	-104.61722	585	X	X	X	X	X	X												X			X	X				
80202	CITY LIBRARY	C	0		N	SASKATCHEWAN	4th AVE. & 23RD ST.	SASKATOON	CANADA	S7K		-6	52.12964	-106.65959	478																										
80203	PORTEOUS LODGE	R	0		N	SASKATCHEWAN	30th ST. & 105 AVENUE	SASKATOON	CANADA	S7L		-6	52.13889	-106.69389	498																										
80209	IDYLWYLD DR. & 33RD ST.	C	0		N	SASKATCHEWAN	IDYLWYLD DR. & 33RD ST.	SASKATOON	CANADA	S7K		-6	52.14333	-106.66889	504																										
80210	CENTRAL HAVEN	R	0		N	SASKATCHEWAN	1020 AVE I NORth	SASKATOON	CANADA	S7L	S7L 2H7	-6	52.14306	-106.67667	503																										
80211	CORMAN PARK	C	1	X	Y	SASKATCHEWAN	511 1ST AVENUE NORth	SASKATOON	CANADA	S7K	S7K 1X5	-6	52.13613	-106.66293	483	X	X	X	X	X	X												X					X			
80301	FAIRFORD ST. & 1ST AVE.	C	0		N	SASKATCHEWAN	FAIRFORD ST. & 1ST AVE.	MOOSEJAW	CANADA	S6H		-6	50.39444	-105.53833	581																										
80302	110 OMINICA STREET	C	0		N	SASKATCHEWAN	110 OMINICA STREET	MOOSEJAW	CANADA	S6H		-6	50.39345	-105.53759	548																										
80401	1257 - 1ST AVE. EAST	C	0		N	SASKATCHEWAN	1257 - 1ST AVE. EAST	PRINCE ALBERT	CANADA	S6V		-6	53.20306	-105.75278	455																										
80402	63 - 12th STREET EAST _PA Station_	C	1		Y	SASKATCHEWAN	63 - 12th STREET EAST	PRINCE ALBERT	CANADA	S6V	S6V 6G1	-6	53.201694	-105.75203	436	X		X	X	X	X												X								
80501	1 ST. & 14th AVE.	C	0		N	SASKATCHEWAN	1 ST. & 14th AVE.	ESTEVAN	CANADA	S4A		-6	49.14083	-103.00111	565																										
80601	44th ST. & 48th AVE.	C	0		N	SASKATCHEWAN	44th ST. & 48th AVE.	LLOYDMINSTER	CANADA	S9V		-6	53.27833	-110	646																										
80701	CORONACH	R	0		N	SASKATCHEWAN	SE CORNER OF CORONACH	CORONACH	CANADA	S0H		-6	49.11667	-105.51667	786																										
80801	PENSE	R	0		N	SASKATCHEWAN	324 NORth FRONT ST.	PENSE	CANADA	S0G		-6	50.34861	-104.98333	581																										
80901	BRATT'S LAKE	A	1	X	C	SASKATCHEWAN	RADIATION OBSERVATORY	BRATT'S LAKE	CANADA	S0G		-6	50.20083	-104.71028	595						X															X	X				
81001	SPEEDY CREEK	C	1		Y	SASKATCHEWAN	1200 BEGG ST. W	SWIFT CURRENT	CANADA	S9H	S9H 3X3	-6	50.285833	-107.81689	753	X		X	X	X	X		X										X								
90103	146 ST. & 92ND AVENUE	R	0		N	ALBERTA	146 ST. & 92ND AVENUE	EDMONTON	CANADA	T5R	T5R 0W4	-7	53.52626	-113.57091	667																										
90109	149 ST. & 115 AVENUE	I	0		N	ALBERTA	149 ST. & 115 AVENUE	EDMONTON	CANADA	T5M	T5M 1W9	-7	53.56519	-113.57793	676																										
90114	109th ST. & 98th AVENUE	C	0		N	ALBERTA	109th ST. & 98th AVENUE	EDMONTON	CANADA	T5K	T5K 0C8	-7	53.53555	-113.50896	666																										
90118	73 AVENUE & 95 STREET	R	0		N	ALBERTA	73 AVENUE & 95 STREET	EDMONTON	CANADA	T6E	T6E 1A9	-7	53.50962	-113.47359	670																										
90120	EDMONTON SOUTH	R	1		Y	ALBERTA	6240 113 STREET	EDMONTON	CANADA	T6H	T6H 3L2	-7	53.50022	-113.526	675		X	X	X	X	X	X							X												
90121	EDMONTON EAST	I	1	X	Y	ALBERTA	17 STREET & 105 AVENUE	EDMONTON	CANADA	T6P	T6P 1R2	-7	53.54823	-113.36811	670	X	X	X	X	X	X								X							X	X				
90122	EDMONTON NORTHWEST	R	0		N	ALBERTA	13335 127 ST	EDMONTON	CANADA	T5L	T5L 1B5	-7	53.59472	-113.53889	678		X	X			X	X	X																		
90123	100 ST. & 102 AVENUE	R	0		N	ALBERTA	100 ST. & 102 AVENUE	EDMONTON	CANADA	T5J	T5J 5B6	-7	53.54378	-113.4905	675																										
90125	PRINS ELIZABETH & 108 ST	C	0		N	ALBERTA	PRINS ELIZABEth & 108 ST	EDMONTON	CANADA	T5G	T5G 0Y6	-7	53.56409	-113.50695	674																										
90126	77 AVENUE & 85 STREET	R	0		N	ALBERTA	77 AVENUE & 85 STREET	EDMONTON	CANADA	T6C	T6C 0L5	-7	53.51278	-113.45639	670																										
90127	115 AVENUE & 159 STREET	I	0		N	ALBERTA	115 AVENUE & 159 STREET	EDMONTON	CANADA	T5M		-7	53.5675	-113.59917	683																										
90128	99 AVENUE & 160 STREET	R	0		N	ALBERTA	99 AVENUE & 160 STREET	EDMONTON	CANADA	T5P	T5P 3E3	-7	53.5375	-113.59611	672																										
90129	101 AVENUE & 17 STREET	I	0		N	ALBERTA	101 AVENUE & 17 STREET	EDMONTON	CANADA	T5P		-7	53.5375	-113.59611	672																										
90130	EDMONTON CENTRAL	C	1	X	Y	ALBERTA	10255 - 104th STREET	EDMONTON	CANADA	T5J	T5J 1B1	-7	53.54449	-113.49893	663		X	X	X	X	X								X							X	X				
90131	SHERWOOD PARK	R	0		N	ALBERTA	BROADMOOR BLVD	SHERWOOD PARK	CANADA	T8A		-7	53.53194	-113.32056	717	X																	X								
90132	EDMONTON MCINTYRE	C	1	X	Y	ALBERTA	4946-89 STREET	EDMONTON	CANADA	T6E	T6E 5K1	-7	53.486	-113.4646	682								X		X				X				X					X			
90203	407-31 AVENUE N.W.	R	0		N	ALBERTA	407-31 AVENUE N.W.	CALGARY	CANADA	T2M		-7	51.08048	-114.06784	1082																										
90204	316-7th AVENUE	C	0		N	ALBERTA	316-7th AVENUE	CALGARY	CANADA	T2G		-7	51.045	-114.04861	1044																										
90216	GLENMORE TRAIL & 18 ST.	R	0		N	ALBERTA	GLENMORE TRAIL & 18 ST.	CALGARY	CANADA	T3E		-7	51.00361	-114.09889	1089																										
90218	CALGARY EAST	I	1		Y	ALBERTA	49 AVENUE & 15th STREET S.E.	CALGARY	CANADA	T2G		-7	51.00943	-114.02542	1029	X	X	X	X	X	X								X												
90219	620-7th AVENUE S.W.	C	0		N	ALBERTA	620-7th AVENUE S.W.	CALGARY	CANADA	T2P		-7	51.04694	-114.07472	1048																										
90220	26 AVE. & 4 STREET N.W.	R	0		N	ALBERTA	26 AVE. & 4 STREET N.W.	CALGARY	CANADA	T2M		-7	51.07606	-114.07148	1090																										
90221	DALHOUSIE DR & DALHAM DR	R	0		N	ALBERTA	DALHOUSIE DR & DALHAM DR	CALGARY	CANADA	T3A		-7	51.10611	-114.15167	1140																										
90222	CALGARY NORthWEST	R	1		Y	ALBERTA	39 ST. & 29 AVE. N.W.	CALGARY	CANADA	T3B		-7	51.08018	-114.14529	1120		X	X	X	X	X								X												
90223	11 ST. & 38 AVE. S.E.	C	0		N	ALBERTA	11 ST. & 38 AVE. S.E.	CALGARY	CANADA	T2G		-7	51.02056	-114.03361	1042																										
90224	OGDENDALE & 71 AVE S.E.	I	0		N	ALBERTA	OGDENDALE & 71 AVE S.E.	CALGARY	CANADA	T2C		-7	50.98861	-113.98944	1024																										
90225	PALLISER DR & OAKWOOD SW	R	0		N	ALBERTA	PALLISER DR & OAKWOOD SW	CALGARY	CANADA	T2V		-7	50.96944	-114.12472	1104																										
90226	SHEPPARD & 84 AVE S.E.	I	0		N	ALBERTA	SHEPPARD & 84 AVE S.E.	CALGARY	CANADA	T2C		-7	50.97806	-113.99306	1036																										
90227	CALGARY CENTRAL	C	0		N	ALBERTA	611-4th STREET S.W.	CALGARY	CANADA	T2P		-7	51.04778	-114.07556	1044																					X	X	X			
90228	CALGARY CENTRAL-2	C	1	X	Y	ALBERTA	620 7th ave SW	CALGARY	CANADA	T2P	T2P-0Y8	-7	51.04761	-114.07517	105		X	X	X	X	X	X	X						X							X		X			
90301	4747 50th STREET	C	0		N	ALBERTA	4747 50th STREET	RED DEER	CANADA	T4N	T0P 1C0	-7	52.26944	-113.80833	862																										
90302	RED DEER RIVERSIDE DRIVE	C	1		Y	ALBERTA	73 STREET & RIVERSIDE DRIVE	RED DEER	CANADA	T4P		-7	52.29881	-113.79411	858	X	X	X	X	X	X								X												
90303	RED DEER - 30 Ave - CITY CENTRE	C	0		N	ALBERTA	30 Avenue		CANADA			-7																													
90401	770 FIRST STREET S.E.	C	0		N	ALBERTA	770 FIRST STREET S.E.	MEDICINE HAT	CANADA	T1A		-7	50.05	-110.66667	686																										
90402	CRESCENT HEIGHTS	R	1		Y	ALBERTA	12th ST NW & Division Ave.	MEDICINE HAT	CANADA	T1A		-7	50.04893	-110.68116	709		X	X	X	X	X								X												
90501	13 ST. & 9 AVENUE S.	C	0		N	ALBERTA	13 ST. & 9 AVENUE S.	LEthBRIDGE	CANADA	T1J		-7	49.695	-112.82278	909																										
90502	LETHBRIDGE	R	1		Y	ALBERTA		LEthBRIDGE	CANADA	T1J		-7	49.71621	-112.8006	918	X	X	X	X	X	X		X	X					X												
90601	FORT SASKATCHEWAN	R	1	X	Y	ALBERTA	9209A-96 Ave	FORT SASKATCHEWAN	CANADA	T8L		-7	53.69887	-113.22328	628	X	X	X	X	X	X		X												X	X					
90602	RANGE ROAD 220	A	1		P	ALBERTA	RGE RD 220 & RIVER ROAD	FORT SASKATCHEWAN	CANADA	T8L		-7	53.75236	-113.12589	625	X		X		X																					
90603	ROSS CREEK	I	1		P	ALBERTA	100 AVE EAST OF 109ST.	FORT SASKATCHEWAN	CANADA	T8L		-7	53.71622	-113.19994	620	X		X	X	X																					
90604	SCOTFORD	U	0		P	ALBERTA	RGE RD 214 TWP RD 560	FORT SASKATCHEWAN	CANADA	T8L		-7	53.79142	-113.07867	648	X																									
90605	STATION 401	A	0		P	ALBERTA	HWY 636 RGE RD 223	FORT SASKATCHEWAN	CANADA	T8L		-7	53.7107	-113.16461	619			X	X	X																					
90606	BRUDERHEIM	R	1		P	ALBERTA		Town of Bruderheim	CANADA			-7	53.7999878	-112.92781	632	X		X	X	X	X									X	X	X									
90701	FORT MCMURRAY ATHABASCA VALLEY	R	1	X	Y	ALBERTA	FRANKLIN AVENUE	FORT MCMURRAY	CANADA	T9H		-7	56.7328	-111.3902	260	X	X	X	X	X	X		X												X	X					
90702	FORT MCMURRAY PATRICIA MCINNES	R	1		P	ALBERTA	TIMBERLEA SUBDIVISION	FORT MCMURRAY	CANADA	T9K		-7	56.75222	-111.47611	355	X		X	X	X	X		X																		
90703	MILLENNIUM	I	1		P	ALBERTA		FORT MCMURRAY	CANADA	T9K		-7	56.88892	-111.3831	340	X		X	X	X			X																		
90801	FORT MCKAY	R	1		P	ALBERTA	MAIN STREET	FORT MACKAY	CANADA	T0P		-7	57.18941	-111.6405	268	X		X	X	X	X		X												X						
90802	LOWER CAMP	F	1		P	ALBERTA	LOWER CAMP	FORT MACKAY	CANADA	T0P		-7	57.02694	-111.50083	247	X																									
90803	MILDRED LAKE	F	1		P	ALBERTA	SYNCRUDE AIRSTRIP	FORT MACKAY	CANADA	T0P		-7	57.05	-111.56444	313	X																									
90804	MANNIX	F	1		P	ALBERTA	MANNIX	FORT MACKAY	CANADA	T0P		-7	56.96778	-111.48194	331	X																									
90805	BUFFALO VIEWPOINT	F	1		P	ALBERTA	BUFFALO VIEWPOINT	FORT MACKAY	CANADA	T0P		-7	56.99667	-111.5925	336	X																									
90806	SYNCRUDE UE1	F	1	X	Y	ALBERTA		FORT MACKAY	CANADA	T0P		-7	57.1492	-111.6424	342	X		X	X	X	X		0	X												X	X				
90807	WAPASU CREEK	I	4	X	Y	ALBERTA	Located outside approval boundries at PTI camp	WAPASU	CANADA			-7	57.26176	-111.037	429	X		X	X	X	X												X			X					
90901	ROYAL PARK _RLPK_	A	0		N	ALBERTA	ROYAL PARK	VEGREVILLE	CANADA	T0B		-7	53.57528	-112.19389	656																					X					
91001	ESTHER	U	1	X	C	ALBERTA	ESthER	ESthER	CANADA	T0J		-7	51.66667	-110.2	707						X															X					
91101	ELK ISLAND NATIONAL PARK	U	1	X	Y	ALBERTA	NATIONAL PARK	ELK ISLAND	CANADA	T8L		-7	53.68238	-112.86812	714						X														X	X					
91201	HIGHTOWER RIDGE	F	0		Y	ALBERTA	SE 11 54 2 W6	HIGHTOWER RIDGE	CANADA	T0E		-7	53.64675	-118.17837	1500	X		X	X	X	X		X													X					
91301	TOMAHAWK	A	1		P	ALBERTA	SE 2 51 6 W5	TOMAHAWK	CANADA	T0E		-7	53.37255	-114.76835	789	X		X	X	X	X	X	X																		
91401	VIOLET GROVE	A	1		P	ALBERTA	SE 17 48 08 W5	VIOLET GROVE	CANADA	T0E		-7	53.14222	-115.13806	1000	X		X	X	X	X																				
91501	BEAVERLODGE	A	1		Y	ALBERTA	BEAVERLODGE RESEARCH FARM	BEAVERLODGE	CANADA	T0H	T0H 0C0	-7	55.19634	-119.39682	762	X		X	X	X	X		X						X												
91601	CARROT CREEK	A	1		P	ALBERTA	SE 31 53 13 W5	CARROT CREEK	CANADA	T0E		-7	53.62174	-115.85726	800	X		X	X	X	X																				
91701	STEEPER	F	0		Y	ALBERTA	NE 12 48 22 W5	STEEPER	CANADA	T0E		-7	53.1325	-117.09111	1400								X																		
91801	FORT CHIPEWYAN	U	1		P	ALBERTA	FORT CHIPEWYAN	FORT CHIPEWYAN	CANADA	T0P	T0P 1P0	-7	58.70879	-111.17683	238	X		X	X	X	X		X																		
91901	CAROLINE	A	1		P	ALBERTA	16-30-034-5 W5	CAROLINE	CANADA	T0M		-7	51.95	-114.7	1140	X		X	X	X	X												X								
92001	HENRY PIRKER STATION	R	1		Y	ALBERTA	10327 - 107 AVENUE	GRANDE PRAIRIE	CANADA	T8V	T8V 1M4	-7	55.00003	-118.78662	658	X	X	X	X	X	X		X						X												
92101	ALBIAN MINE SITE	I	1		P	ALBERTA		BITUMOUNT	CANADA			-7	57.2808	-111.5257	291	X		X	X	X			X																		
92102	ALBIAN MUSKEG RIVER	I	1		P	ALBERTA			CANADA			-7	57.25	-111.514167	291	X		X	X	X			X																		
92201	LAMONT	A	1		P	ALBERTA	RGE RD 203 & TWP RD 550	LAMONT	CANADA	T0B	T0B 2R0	-7	53.76036	-112.88017	767	X		X	X	X	X	X										X	X								
92301	REDWATER	I	1		P	ALBERTA	"HWY 643, SOUth of TWP RD 564"	REDWATER	CANADA	T0A	T0A 2W0	-7	53.84369	-113.09922	631	X		X	X	X			X																		
92401	ACME GRAINGER	A	0		N	ALBERTA	Range Road 244	Grainger	CANADA	T0M	T0M 0L0	-7	51.48377	-113.33185	844																										
92501	BENTLEY _PORTABLE_	R	0		N	ALBERTA	Range Road 11	Jarvie	CANADA	T0G	T0G 1H0	-7	54.45778	-114.0306	907																										
92601	BRETON	R	1		P	ALBERTA	Hwy 20	Breton	CANADA	T0C	T0C 0P0	-7	53.0903	-114.46061	900	X		X	X	X	X	X																			
92701	CROSSFIELD-CARSTAIRS _PORTABLE_	R	1		P	ALBERTA	1 Ave NE	Airdrie	CANADA	T4B	T4B 1R1	-7	51.2924	-114.0028	1099	X		X	X		X		X																		
92801	DRAYTON VALLEY	R	1		P	ALBERTA	48 Ave	Drayton Valley	CANADA	T7A	1V7	-7	53.2196	-114.9718	858							X	X																		
92901	EDSON	R	1		P	ALBERTA	7 Ave	Edson	CANADA	T7E	T7E 1B5	-7	53.5874	-116.4306	894	X		X	X	X	X		X																		
93001	EVERGREEN PARK	R	1		P	ALBERTA		GRANDE PRAIRIE	CANADA	T8V		-7	55.1191	-118.7265	645	X							X																		
93101	GENESEE	R	1		P	ALBERTA	Range Road 15	thorsby	CANADA	T0C	T0C 2P0	-7	53.3016	-114.2211	772	X		X	X	X	X		X																		
93201	HINTON	R	0		N	ALBERTA			CANADA			-7	53.42941	-117.54485	1215							X																			
93202	HINTON	R	1		P	ALBERTA	private road	Hinton	CANADA	T7V	T7V 1C6	-7	53.42941	-117.54485	1215							X	X																		
93301	JAMES RIVER	U	0		N	ALBERTA	Range Road 33	Cremona	CANADA	T0M	T0M 0R0	-7	51.5437	-114.361	1045																										
93401	LACOMBE	A	0		N	ALBERTA		Beiseker	CANADA	T0M	T0M 0G0	-7	51.2853	-113.4376	850																										
93501	LIBERTY PARK	R	0		N	ALBERTA	not available	Pine Lake	CANADA	T0M		-7	52.1249	-113.4921	884																										
93601	LIMESTONE MOUNTAIN _RAVEN_	U	0		N	ALBERTA	not available	Rocky Mountain House	CANADA	T4T		-7	51.93045	-115.42796	2106																										
93701	MALMO	A	0		N	ALBERTA	Township Road 402	Mirror	CANADA	T0B	T0B 3C0	-7	52.4302	-113.1045	823																										
93801	MEADOWS	A	1		P	ALBERTA	Range Road 34	Warburg	CANADA	T0C	T0C 2T0	-7	53.53	-114.6361	753	X		X	X	X																					
93901	POWERS	A	1		P	ALBERTA	Range Road 11	Thorsby	CANADA	T0C	T0C 2P0	-7	53.633	-114.4199	774	X		X	X	X				X																	
94001	SMOKY HEIGHTS	R	1		P	ALBERTA	Goodwin Road	DeBolt	CANADA	T0H	T0H 1B0	-7	55.405	-118.275	638	X								X																	
94101	SUNDRE TOWNSIDE	R	0		N	ALBERTA	Range Road 34	Madden	CANADA	T0M	T0M 1L0	-7	51.4845	-114.3752	1085																										
94201	WAGNER	A	0		N	ALBERTA	Range Road 24	Sunnybrook	CANADA	T0C	T0C 2M0	-7	53.3845	-114.4086	750	X		X	X	X																					
94202	WAGNER2	A	1		P	ALBERTA			CANADA			-7	53.493889	-114.449722	684	X		X	X	X																					
94301	COLD LAKE SOUTH	R	1		P	ALBERTA	15 Ave	Cold Lake	CANADA	T9M		-7	54.458	-110.174	556	X		X	X	X	X								X												
94401	ST. LINA	A	1		P	ALBERTA			CANADA			-7	54.2165	-111.5026	679	X		X	X	X	X								X												
100102	SAPPERTON	R	0		N	BRITISH COLUMBIA	100 RICHMOND STREET	GVRD - NEW WESTMINSTER	CANADA	V3L	V3L 4B3	-8	49.22167	-122.89861	61																										
100104	SOUTH CAMBIE	R	0		N	BRITISH COLUMBIA	4251 ONTARIO ST.	GVRD - VANCOUVER	CANADA	V5Y	V5V 3G8	-8	49.24778	-123.10417	80																										
100105	739 WEST HASTINGS STREET	C	0		N	BRITISH COLUMBIA	739 WEST HASTINGS STREET	GVRD - VANCOUVER	CANADA	V6C		-8	49.28557	-123.11412	34																										
100106	2294 WEST 10th AVENUE	R	0		N	BRITISH COLUMBIA	2294 WEST 10th AVENUE	GVRD - VANCOUVER	CANADA	V6K	V6K 2H8	-8	49.2625	-123.15611	45																										
100108	MARPOLE	I	0		N	BRITISH COLUMBIA	250 WEST 70th AVENUE	GVRD - VANCOUVER	CANADA	V5X	V5X 2X1	-8	49.20972	-123.11389	7																										
100109	BC HYDRO	C	0		N	BRITISH COLUMBIA	HORNBY/SMYthE	GVRD - VANCOUVER	CANADA	V6Z		-8	49.28111	-123.12361	41																										
100110	KENSINGTON PARK	R	1	X	Y	BRITISH COLUMBIA	6400 E. HASTINGS & KENSINGTON	METRO VAN - BURNABY	CANADA	V5B		-8	49.27944	-122.97111	105	X	X	X	X	X	X	X		X												X					
100111	ROCKY PT. PARK	I	1	X	Y	BRITISH COLUMBIA	MOODY & ESPLANADE ST.	METRO VAN - PORT MOODY	CANADA	V3H		-8	49.280914	-122.849364	17	X	X	X	X	X	X	X		X												X	X	X			
100112	ROBSON SQUARE	C	1	X	P	BRITISH COLUMBIA	ROBSON/HORNBY	METRO VAN - VANCOUVER	CANADA	V6Z		-8	49.28222	-123.12119	33	X	X	X	X	X	X															X	X				
100113	ANNACIS ISLAND  DELTA	I	0		N	BRITISH COLUMBIA	ANNACIS ISLAND  DELTA	GVRD - DELTA	CANADA	V4C		-8	49.16444	-122.93	29																										
100114	MUNICIPAL HALL  RICHMOND	C	0		N	BRITISH COLUMBIA	MUNICIPAL HALL  RICHMOND	GVRD - RICHMOND	CANADA	V6Y		-8	49.16361	-123.13639	10																										
100115	NEWTON ELEM. SCH.  SURREY	R	0		N	BRITISH COLUMBIA	13359 81ST AVENUE SURREY	GVRD - SURREY	CANADA	V3W	V3W 3C5	-8	49.15083	-122.85167	63																										
100116	CENTRAL LONSDALE	R	0		N	BRITISH COLUMBIA	163 EAST 13th ST. N. VANCOUVER	GVRD - VANCOUVER	CANADA	V7L		-8	49.32028	-123.06861	124																										
100117	BCIT BURNABY	R	0		N	BRITISH COLUMBIA	3700 WILLINGDON AVE. BURNABY	GVRD - BURNABY	CANADA	V5A	V5G 3H2	-8	49.24861	-122.94139	34																										
100118	VANCOUVER KITSILANO	R	1		Y	BRITISH COLUMBIA	2550 WEST 10th AVENUE	METRO VAN - VANCOUVER	CANADA	V6K	V6K 2J6	-8	49.26167	-123.16333	39	X	X	X	X	X	X	X		X																	
100119	BURNABY SOUTH	R	1	X	Y	BRITISH COLUMBIA	5455 RUMBLE STREET	METRO VAN - BURNABY	CANADA	V5J	V5J 2B7	-8	49.21528	-122.98556	125	X	X	X	X	X	X	X		X												X	X	X			
100120	CONFEDERATION PARK	R	0		N	BRITISH COLUMBIA	PANDORA & ALPHA ST. BURNABY	GVRD - BURNABY	CANADA	V5C		-8	49.28333	-122.99778	80																										
100121	SECOND NARROWS	I	1	X	P	BRITISH COLUMBIA	75 RIVERSIDE DR.	METRO VAN - NORTH VANCOUVER	CANADA	V7H	V7H 1T5	-8	49.30167	-123.02028	4	X	X	X	X	X	X			X												X	X				
100122	ANMORE	R	0		N	BRITISH COLUMBIA	ELEMENTARY ROAD ANMORE	GVRD - PORT MOODY	CANADA	V3H		-8	49.31111	-122.85833	153																										
100123	LIONS GATE	R	0		N	BRITISH COLUMBIA	WEST END WELSH ROAD  WEST VAN.	GVRD - VANCOUVER	CANADA	V7P		-8	49.31806	-123.13472	4																										
100124	EAGLE RIDGE	R	0		N	BRITISH COLUMBIA	475 GUILDFORD WAY PORT MOODY	GVRD - PORT MOODY	CANADA	V3H	V3H 3W9	-8	49.28472	-122.82389	36																										
100125	NORTH DELTA	R	1		P	BRITISH COLUMBIA	8544 116th St.	METRO VAN - DELTA	CANADA	V4C	V4C 5V6	-8	49.15833	-122.90167	117			X	X	X	X			X																	
100126	BURNABY MOUNTAIN	R	0		N	BRITISH COLUMBIA	"SFU, University Dr. W."	METRO VAN - BURNABY	CANADA	V5A		-8	49.27972	-122.92222	337			X	X	X	X																				
100127	SURREY EAST	R	1	X	P	BRITISH COLUMBIA	72ND AVE. and 92 St.	METRO VAN - SURREY	CANADA	V4N		-8	49.13278	-122.69417	90		X	X	X	X	X	X		X												X					
100128	RICHMOND SOUTH	R	1	X	P	BRITISH COLUMBIA	WILLIAMS & ARAGON	METRO VAN - RICHMOND	CANADA	V7A		-8	49.14139	-123.10833	8	X	X	X	X	X	X	X		X												X					
100129	PORT COQUITLAM NORTH	R	0		N	BRITISH COLUMBIA	HAMILTON & PAISLEY	METRO VAN - PORT COQUITLAM	CANADA	V3B		-8	49.28	-122.73417	3																										
100130	BURNABY LAKE	R	0		N	BRITISH COLUMBIA	SPERLING & LAUREL ST.	METRO VAN - BURNABY	CANADA	V5B		-8	49.2875	-122.96167	4																					X	X				
100131	SEYMOUR FALLS	U	0		N	BRITISH COLUMBIA	SEYMOR FALLS NORth VANCOUVER	METRO VAN - VANCOUVER	CANADA	V0N		-8	49.44	-122.97139	229																										
100132	MAHON PARK	R	1	X	P	BRITISH COLUMBIA	16th ST. & JONES AVE	METRO VAN - NORTH VANCOUVER	CANADA	V7M		-8	49.32389	-123.08361	71	X	X	X	X	X	X	X		X												X					
100133	BURMOUNT	R	1	X	P	BRITISH COLUMBIA	7815 SHELLMONT	METRO VAN - BURNABY	CANADA	V3J		-8	49.26667	-122.93556	101																					X	X				
100134	VANCOUVER INTL. AIRPORT	R	1	X	P	BRITISH COLUMBIA	3153 TEMPLETON STREET	METRO VAN - RICHMOND	CANADA	V7B	V7B 1A2	-8	49.18639	-123.15222	2	X	X	X	X	X	X	X		X												X	X				
100135	DOUGLAS COLLEGE	R	1		P	BRITISH COLUMBIA	1250 PINETREE WAY	METRO VAN - COQUITLAM	CANADA	V3B	V3B 7X3	-8	49.288056	-122.79139	47		X	X	X	X	X																				
100136	CAPITOL HILL	R	1		P	BRITISH COLUMBIA	GROSVENOR CRESENT	METRO VAN - BURNABY	CANADA	V5B		-8	49.28778	-122.98556	204	X																									
100137	BURNABY NORTH	R	1	X	P	BRITISH COLUMBIA	ETON AND MADISON AVE BURNABY	METRO VAN - BURNABY	CANADA	V5C		-8	49.2875	-123.00778	70	X																				X					
100138	HORSESHOE BAY	R	1		P	BRITISH COLUMBIA	6350áMARINE DRIVE	METRO VAN - WEST VANCOUVER	CANADA	V7W	V7W 2S5	-8	49.3686	-123.27674	66		X							X																	
100140	TSAWWASEN	R	1		P	BRITISH COLUMBIA	MILSON WYND	METRO VAN - DELTA	CANADA			-8	49.00981	-123.08184	52	X	X	X	X		X			X																	
100201	POST OFFICE	C	0		N	BRITISH COLUMBIA	POST OFFICE	PRINCE GEORGE	CANADA	V2L		-8	53.91891	-122.74461	574																										
100202	PRG PLAZA 400	C	1	X	Y	BRITISH COLUMBIA	1011 4th AVENUE	PRINCE GEORGE	CANADA	V2L	V2L 3H9	-8	53.91472	-122.74194	588	X	X	X	X		X		X													X	X	X			
100203	PRG BC RAIL WAREHOUSE	C	1		P	BRITISH COLUMBIA	1108 INDUSTRIAL WAY	PRINCE GEORGE	CANADA	V2N	V2N 5S1	-8	53.87111	-122.74361	595							X																			
100204	VAN BIEN SCHOOL	R	0		N	BRITISH COLUMBIA	311 WILSON CRESCENT	PRINCE GEORGE	CANADA	V2N	V2L 4P8	-8	53.8903	-122.76	591																										
100205	GLADSTONE SCHOOL	R	1		P	BRITISH COLUMBIA	GLADSTONE SCHOOL	PRINCE GEORGE	CANADA	V2N		-8	53.85833	-122.76083	617	X							X																		
100206	LAKEWOOD	R	0		N	BRITISH COLUMBIA	LAKEWOOD	PRINCE GEORGE	CANADA	V2M		-8	53.91556	-122.79583	606																										
100207	CNR SITE	R	0		N	BRITISH COLUMBIA	CNR SITE	PRINCE GEORGE	CANADA	V0J		-8	53.92	-122.739	570																										
100208	BCR WAREHOUSE BLDG	R	0		N	BRITISH COLUMBIA	BCR WAREHOUSE BLDG	PRINCE GEORGE	CANADA	V2N		-8	53.88	-122.77	600																										
100209	GLENVIEW SCHOOL	R	0		N	BRITISH COLUMBIA	7310 CLUFF	PRINCE GEORGE	CANADA	V2K	V2K 2M3	-8	53.99556	-122.77556	736																										
100210	PRINCE GEORGE CBC TRANSMITTER	R	1		P	BRITISH COLUMBIA		PRINCE GEORGE	CANADA			-8	53.90333	-122.70361	733	X																									
100211	PRINCE GEORGE JAIL	R	1		P	BRITISH COLUMBIA	775 E Highway 16	PRINCE GEORGE	CANADA			-8	53.90833	-122.71361	616	X																									
100212	PRINCE GEORGE MARSULEX ACID PLANT	I	1		P	BRITISH COLUMBIA	8901 Penn Road	Prince George	CANADA			-8	53.8416	-122.7344	604	X																									
100213	PRINCE GEORGE DENICOLA RANCH	I	1		P	BRITISH COLUMBIA	1885 Foreman Road	Prince George	CANADA			-8	53.9353	-122.6814	581								X																		
100214	PRINCE GEORGE EXPLORATION PLACE	I	1		P	BRITISH COLUMBIA	333 Becott Place	Prince George	CANADA			-8	53.9053	-122.7344	576								X																		
100301	POLICE STATION	C	0		N	BRITISH COLUMBIA	625 FISGARD ST.	VICTORIA	CANADA	V8W	V8W 1R7	-8	48.42945	-123.36624	11																										
100302	1106 COOK ST.	C	0		N	BRITISH COLUMBIA	1106 COOK ST.	VICTORIA	CANADA	V8V	V8V 3Z9	-8	48.42361	-123.35278	30																										
100303	1250 QUADRA ST.	C	0		N	BRITISH COLUMBIA	1250 QUADRA ST.	VICTORIA	CANADA	V8W	V8W 2K7	-8	48.425	-123.35833	25																										
100304	VICTORIA TOPAZ	C	1	X	Y	BRITISH COLUMBIA	923 TOPAZ	VICTORIA	CANADA	V8T	V8T 2M2	-8	48.441956	-123.363086	29	X	X	X	X		X												X					X			
100305	OAK BAY REC. CENTRE	R	0		N	BRITISH COLUMBIA	1975 BEE STREET	VICTORIA	CANADA	V8R	V8R 5E6	-8	48.43248	-123.32077	14																										
100306	CAMOSUN COLLEGE	R	0		N	BRITISH COLUMBIA	CAMOSUN COLLEGE	VICTORIA	CANADA	V0S		-8	48.49	-123.42	65																										
100307	ROYAL ROADS UNIVERSITY	R	0		N	BRITISH COLUMBIA	2005 SOOKE ROAD	VICTORIA	CANADA	V9C	V9B 5Y2	-8	48.43038	-123.46964	6			X	X		X		X																		
100308	COLWOOD CITY HALL	C	1		P	BRITISH COLUMBIA	3300 WISHART ROAD	VICTORIA	CANADA	V9C	V9C 1R1	-8	48.42389	-123.49278	86	X		X	X	X	X												X								
100309	KEATING	R	0		N	BRITISH COLUMBIA	KEATING	VICTORIA	CANADA	V9C		-8	48.5692	-123.4014	51																										
100310	BRAEFOOT	R	0		N	BRITISH COLUMBIA	BRAEFOOT	VICTORIA	CANADA	V9C		-8	48.47	-123.3439	60																										
100311	DND HOSPITAL AIR STATION	C	0		N	BRITISH COLUMBIA	DND HOSPITAL AIR STATION	VICTORIA	CANADA	V9C		-8	48.44	-123.416	6																										
100312	ESQUIMALT GRAVING DOCK	F	0		P	BRITISH COLUMBIA	825 Admirals Road	VICTORIA	CANADA	V9C		-8	48.43694	-123.58833	299							X																			
100313	LANGFORD DOGWOOD SCHOOL	R	0		N	BRITISH COLUMBIA	2720 Jacklin Road	VICTORIA	CANADA			-8	48.45306	-123.50333	110								X																		
100314	SAANICH STELLYS CROSS ROAD	R	0		N	BRITISH COLUMBIA	Tsartlip Band Property	VICTORIA	CANADA			-8	48.58028	-123.44278	65		X	X	X		X		X																		
100315	Victoria Christopher Point	R	0		N	BRITISH COLUMBIA	DND Property at Rocky Point	VICTORIA	CANADA			-8	48.30944	-123.56194	0	X	X				X		X																		
100316	Langford Lakewood Elementary School	R	0		N	BRITISH COLUMBIA	2363 Setchfield Avenue	VICTORIA	CANADA			-8	48.46577	-123.50765	120	X	X	X	X		X		X																		
100317	JAMES BAY DANIELS ELECTRONICS	C	0		P	BRITISH COLUMBIA	43 Erie Street	Victoria			V8V 1P8	-8	48.4208	-123.3828	22	X																									
100401	FEDERAL BUILDING	C	0		N	BRITISH COLUMBIA	317 SEYMOUR ST.	KAMLOOPS	CANADA	V2C		-8	50.6747	-120.334	381	X																	X								
100402	KAMLOOPS BROCKLEHURST	C	1	X	Y	BRITISH COLUMBIA	MAYFAIR STREET	KAMLOOPS	CANADA	V2B		-8	50.69759	-120.39698	342	X	X	X	X		X		X															X			
100403	FEDERAL BUILDING	R	0		N	BRITISH COLUMBIA	FEDERAL BUILDING	KAMLOOPS	CANADA	V2B		-8																													
100601	400 CARMI AVE.	C	0		N	BRITISH COLUMBIA	400 CARMI AVE.	PENTICTON	CANADA	V2A	V2A 3G5	-8	49.48472	-119.58333	364																										
100701	KELOWNA COLLEGE	C	1	X	Y	BRITISH COLUMBIA	3333 COLLEGE WAY	KELOWNA	CANADA	V1Y	V1V 1V7	-8	49.86111	-119.475	347	X	X	X	X		X		X															X			
100702	KELOWNA	C	0		N	BRITISH COLUMBIA	1000 KLO Road	KELOWNA	CANADA	V1Y	V1Y 4X8	-8	49.86222	-119.4775	349		X																								
100801	KEREMEOS	C	1		P	BRITISH COLUMBIA	702-4th Street	KEREMOS	CANADA	V0X	V0X 1N3	-8	49.20457	-119.83018	417			X	X		X		X																		
101001	ABBOTSFORD AIRPORT	R	0		N	BRITISH COLUMBIA	AIRPORT	ABBOTSFORD	CANADA	V2T		-8	49.03056	-122.37611	61																										
101002	MSA LIBRARY - DOWNTOWN	R	0		N	BRITISH COLUMBIA	33660 SOUth FRASER HIGHWAY	ABBOTSFORD	CANADA	V2S		-8	49.04944	-122.2925	48																										
101003	CENTRAL ABBOTSFORD	R	1		Y	BRITISH COLUMBIA	32995 BEVAN AVE.	METRO VAN - ABBOTSFORD	CANADA	V2S	V2S 1T2	-8	49.04278	-122.30972	63	X	X	X	X	X	X	X		X																	
101004	ABBOTSFORD AIRPORT	A	0		N	BRITISH COLUMBIA	31790 WALMSLEY AVENUE	METRO VAN - ABBOTSFORD	CANADA	V2T	V2T 6G6	-8	49.0325	-122.35306	59	X		X	X	X	X			X												X	X	X			
101101	CHILLIWACK AIRPORT	R	1	X	Y	BRITISH COLUMBIA	46244 AIRPORT ROAD	METRO VAN-CHILLIWACK	CANADA	V2P	V2P 1A5	-8	49.15611	-121.94056	16	X	X	X	X	X	X	X		X												X	X				
101201	PITT MEADOWS AIRPORT	U	0		N	BRITISH COLUMBIA	AIRPORT	PITT MEADOWS	CANADA	V3Y		-8	49.21278	-122.70778	4																										
101202	MEADOWLANDS ELEM. SCHOOL	R	1		P	BRITISH COLUMBIA	18477 DEWDNY TRUNK	METRO VAN-PITT MEADOWS	CANADA	V3Y		-8	49.24528	-122.70889	5	X	X	X	X	X	X	X		X																	
101301	LANGLEY CENTRAL	R	1	X	Y	BRITISH COLUMBIA	23752 52ND AVENUE	METRO VAN-LANGLEY	CANADA	V2Z	V2Z 2P3	-8	49.09556	-122.56694	89	X	X	X	X	X	X	X		X												X					
101401	HOPE AIRPORT	U	1	X	P	BRITISH COLUMBIA	62715 AIRPORT ROAD	METRO VAN-HOPE	CANADA	V0X	V0X 1L2	-8	49.36972	-121.49944	39		X	X	X	X	X	X		X												X					
101501	GOLDEN EARS ELEM. SCHOOL	R	1		P	BRITISH COLUMBIA	23124 118th AVENUE	METRO VAN - MAPLE RIDGE	CANADA	V2X	V2X 2N1	-8	49.215	-122.58194	54		X	X	X	X	X																				
101601	38075 2ND AVENUE	R	1		Y	BRITISH COLUMBIA	38075 2ND AVENUE	SQUAMISH	CANADA	V0N		-8	49.70639	-123.15444	6	X		X	X		X		X																		
101602	SQU GOVERNMENT BUILDING	C	0		N	BRITISH COLUMBIA	38075 2nd Avenue	SQUAMISH	CANADA	V8B	V8B 0C3	-8	49.70639	-123.15444	6						X																				
101701	QUESNEL SENIOR SECONDARY	R	1	X	Y	BRITISH COLUMBIA	585 CALLANAN STREET	QUESNEL	CANADA	V0K	V2J 2V3	-8	52.9822	-122.492	490	X	X	X	X		X		X													X	X	X			
101702	QUESNEL MAPLE DRIVE	R	1		P	BRITISH COLUMBIA	950 MOUNTAIN ASH ROAD	QUESNEL	CANADA	V2J	V2J 3V7	-8	52.96306	-122.45056	614						X		X																		
101703	QUESNEL PINECREST CENTRE	R	0		N	BRITISH COLUMBIA	501 PINECREST ROAD	QUESNEL	CANADA	V2J		-8	53.00417	-122.5125	524																										
101704	CORRELIEU SCHOOL	R	1		P	BRITISH COLUMBIA	CORRELIEU SCHOOL	QUESNEL	CANADA	V2J		-8	52.9664	-122.5167	478								X																		
101801	CRESTON PC SCHOOL	R	1		Y	BRITISH COLUMBIA	PRINCE CHARLES SECONDARY SCHOOL	CRESTON	CANADA	V0B		-7	49.09444	-116.5125	607							X	X																		
101802	HOSPITAL	R	0		N	BRITISH COLUMBIA	312 15th AVENUE	CRESTON	CANADA	V0B	V0B 1G0	-7	49.09864	-116.51359	629																										
101803	Creston Piper Farms	A	0		N	BRITISH COLUMBIA	Canada/US Border	CRESTON	CANADA			-7	49.01194	-116.53333	539								X																		
101901	CRANBROOK PR3	R	0		Y	BRITISH COLUMBIA	ADJACENT TO 1333 14th AVENUE S	CRANBROOK	CANADA	V1C		-8	49.51	-115.75917	922																										
101902	SWIMMING POOL	R	0		N	BRITISH COLUMBIA	SWIMMING POOL	CRANBROOK	CANADA	V1C		-7	49.505	-115.75444	936																										
101903	CRANBROOK GREEN	R	0		N	BRITISH COLUMBIA	17th Avenue North	CRANBROOK	CANADA	V1C	V1C 3X5	-7	49.5117	-115.7583	914																										
102001	SATURNA	F	1	X	C	BRITISH COLUMBIA	SATURNA	SATURNA	CANADA	V0N		-8	48.78333	-123.13333	178						X															X	X				
102101	DOWNTOWN	R	0		N	BRITISH COLUMBIA	DOWNTOWN	NANAIMO	CANADA			-8	49.16449	-123.9373	17																										
102102	LABIEUX ROAD	R	1		Y	BRITISH COLUMBIA	2080 LABIEUX ROAD	NANAIMO	CANADA	V9S		-8	49.20083	-123.99389	121	X		X	X		X		X																		
102103	HARMAC	R	0		P	BRITISH COLUMBIA	CEDAR 7 WOOBANK RD	NANAIMO	CANADA	V0R		-8	49.1217	-123.86	25							X																			
102201	BUTLER PARK	R	1		P	BRITISH COLUMBIA	BUTLER PARK	TRAIL	CANADA	V1R		-8	49.09556	-117.69722	422	X					X																				
102202	TRAIL WEST	R	0		N	BRITISH COLUMBIA	TRAIL WEST	TRAIL	CANADA	V1R		-8	49.0933	-117.6981	404																										
102203	SECHELT TRAIL BAY MALL _Centre_	C	0		N	BRITISH COLUMBIA	5575 Cowrie Street	Sechelt	CANADA	V0N	V0N 3A0	-8	49.4719	-123.7614	15																										
102301	CRANBERRY LAKE	R	1		P	BRITISH COLUMBIA	WILDLIFE SANCTUARY	POWELL RIVER	CANADA	V8A		-8	49.875	-124.51667	209			X	X																						
102302	WILDWOOD MOTORS	C	1		P	BRITISH COLUMBIA	WILDWOOD MOTORS	POWELL RIVER	CANADA	V8A		-8	49.8875	-124.55833	136								X																		
102303	POWELL RIVER JAMES THOMSON SCHOOL	R	1		P	BRITISH COLUMBIA	6388 Sutherland Drive	POWELL RIVER	CANADA	V8A		-8	49.8891	-124.5625	125								X																		
102401	SMITHERS ST JOSEPHS	R	1	X	Y	BRITISH COLUMBIA	4020 BROADWAY AVENUE	SMITHERS	CANADA	V0J		-8	54.78306	-127.1775	495		X	X	X		X		X												X			X			
102501	TERRACE BC ACCESS CENTRE	R	1		P	BRITISH COLUMBIA	104 - 3220 EBY STREET	TERRACE	CANADA	V8G	V8G 5K8	-8	54.51833	-128.5975	66								X																		
102502	BC HYDRO BLDG	R	0		N	BRITISH COLUMBIA	BC HYDRO BLDG	TERRACE	CANADA	V8G		-8	54.52	-128.57	219																										
102601	PORT ALBERNI TOWNSITE	R	0		P	BRITISH COLUMBIA	5410 ARGYLE STREET	PORT ALBERNI	CANADA	V9Y	V9Y 1T7	-8	49.23444	-124.81472	10							X																			
102602	PORT ALBERNI ELEMENTARY	R	1		P	BRITISH COLUMBIA	4645 HELEN STREET	PORT ALBERNI	CANADA			-8	49.2608	-124.8056	21																		X								
102701	WILLIAMS LAKE COLUMNEETZA SCHOOL	R	1		Y	BRITISH COLUMBIA	1045 WESTERN AVENUE	WILLIAMS LAKE	CANADA	V2G	V2G 2J8	-8	52.14167	-122.15278	631			X	X		X		X																		
102702	SKYLINE SCHOOL	R	0		N	BRITISH COLUMBIA	SKYLINE SCHOOL	WILLIAMS LAKE	CANADA	V2G		-8	52.1161	-122.132	587																										
102703	FIREHALL	R	0		N	BRITISH COLUMBIA	FIREHALL	WILLIAMS LAKE	CANADA	V2G		-8	52.13611	-122.14054	633																										
102704	WATER TOWER	R	0		N	BRITISH COLUMBIA	WATER TOWER	WILLIAMS LAKE	CANADA	V2G		-8	52.1572	-122.155	668																										
102705	168 MILE ROAD	R	0		N	BRITISH COLUMBIA	168 MILE ROAD	WILLIAMS LAKE	CANADA	V2G		-8	52.168	-122.1567	725																										
102706	WILLIAMS LAKE CRD LIBRARY	R	1		P	BRITISH COLUMBIA	180 NORTH 3RD AVE	WILLIAMS LAKE	CANADA	V2G	V2G 2A4	-8	52.13083	-122.14222	609						X		X																		
102801	ELK FALLS DOGWOOD	R	1		P	BRITISH COLUMBIA	ADJACENT TO 660 WESTMERE	CAMPBELL RIVER	CANADA	V9W		-8	50.01667	-125.24722	63			X	X		X		X																		
102802	TYEE SPIT	R	1		P	BRITISH COLUMBIA	2662 TYEE SPIT ROAD	CAMPBELL RIVER	CANADA	V9W		-8	50.04861	-125.25556	7								X																		
102901	B.C. ACCESS CENTER	R	0		N	BRITISH COLUMBIA	B.C. ACCESS CENTER	100 MILE HOUSE	CANADA	V0K		-8	51.6461	-121.2937	924																										
103001	JOHNSON LAKE	R	0		N	BRITISH COLUMBIA	JOHNSON LAKE	SKOOKUMCHUCK	CANADA	V0B		-7	49.91667	-115.73333	837																										
103101	FOREST SERVICE COMPOUND	R	0		N	BRITISH COLUMBIA	FOREST SERVICE COMPOUND	INVERMERE	CANADA	V0A		-7	50.5087	-116.029	839																										
103102	RADIUM PM10	R	0		N	BRITISH COLUMBIA	RADIUM PM10	INVERMERE	CANADA	V0A	V0A 1K0	-7	50.3711	-116.0433	1638																										
103201	LADY GREY SCHOOL	R	0		N	BRITISH COLUMBIA	LADY GREY SCHOOL	GOLDEN	CANADA	V0A	V0A 1H0	-8	51.29744	-116.96815	790																										
103202	GOLDEN HOSPITAL	R	1	X	Y	BRITISH COLUMBIA	835 9th AVENUE SOUth	GOLDEN	CANADA	V0A		-7	51.2958	-116.96722	791																					X					
103203	Golden CPR	U	0		N	BRITISH COLUMBIA	CPR Yard	GOLDEN	CANADA			-7	51.27	-116.93083	789																										
103204	Golden Golf Course	U	0		N	BRITISH COLUMBIA	576 Golf Course Road	GOLDEN	CANADA			-7	51.3325	-117.00667	786																										
103205	Golden Townsite	U	0		N	BRITISH COLUMBIA	835 9th AVENUE SOUth	GOLDEN	CANADA			-7	51.2958	-116.972	788		X	X					X																		
103301	GOVERNMENT BUILDING	R	0		Y	BRITISH COLUMBIA	GOVERNMENT BUILDING	NELSON	CANADA	V1L		-8	49.4928	-117.295	551																										
103302	NELSON KUTENAI PLACE	R	1		P	BRITISH COLUMBIA	333 Victoria Street	Nelson	CANADA	V1L		-8	49.49083	-117.29528	562						X		X																		
103401	FIREHALL	R	0		N	BRITISH COLUMBIA	FIREHALL	REVELSTOKE	CANADA	V0E		-8	50.9979	-118.2	156																										
103402	REVELSTOKE MT BEGBIE SCHOOL	R	1		P	BRITISH COLUMBIA	402 DOWNIE STREET	REVELSTOKE	CANADA	V0E		-8	50.98722	-118.18833	445								X																		
103501	SENIOR CITIZEN CENTRE	R	0		N	BRITISH COLUMBIA	SENIOR CITIZEN CENTRE	CASTLEGAR	CANADA	V0G		-8	49.3	-117.66667	596																										
103502	CASTLEGAR ZINIO PLACE		1		P	BRITISH COLUMBIA	801 9th Avenue	Castlegar	CANADA			-8	49.3183	-117.6692	407	X	X	X	X	X	X	X													X						
103601	PIONEER	R	0		N	BRITISH COLUMBIA	PIONEER	MISSION	CANADA	V2V		-8	49.13539	-122.30371	31																										
103602	MISSION SECONDARY SCHOOL	R	0		Y	BRITISH COLUMBIA	MISSION SECONDARY SCHOOL	MISSION	CANADA	V2S		-8	49.0828	-122.185	245																										
103701	CHETWYND	R	0	X	P	BRITISH COLUMBIA	CHETWYND	CHETWYND	CANADA	V0C		-7	55.6699	-121.632	582																										
103702	PINE RIVER GAS PLANT	R	1		P	BRITISH COLUMBIA	Gas Plant Site	CHETWYND	CANADA			-7	55.575	-121.92083	1159	X																									
103703	Pine River Hasler	I	1		N	BRITISH COLUMBIA	Gas Plant Site	CHETWYND	CANADA			-8	55.60556	-121.97222	602	X																									
103801	FORT ST. JAMES	R	0		N	BRITISH COLUMBIA	FORT ST. JAMES	FORT ST. JAMES	CANADA	V0J		-8	54.44306	-124.25417	699																										
103901	RIVERLODGE	R	1		P	BRITISH COLUMBIA	653 COLUMBIA STREET	KITIMAT	CANADA	V8C		-8	54.05583	-128.67389	18								X																		
103902	KITIMAT HAUL ROAD	I	1		P	BRITISH COLUMBIA	Haulage Road	KITIMAT	CANADA			-8	54.02972	-128.70167	11	X							X																		
103903	Kitimat Rail	I	0		N	BRITISH COLUMBIA	CN Rail Yard	KITIMAT	CANADA			-8	54.06111	-128.68722	20	X		X	X				X																		
103904	KITIMAT WHITESAIL	R	1		P	BRITISH COLUMBIA	1332 Lahadas Blvd North	KITIMAT	CANADA			-8	54.0675	-128.64028	94	X							X																		
103905	KITIMAT HAISLA VILLAGE	R	1		P	BRITISH COLUMBIA	347 Haisla Avenue	KITIMAT	CANADA			-7	53.9733	-128.6503	5	X							X																		
103906	KITIMAT RIO TINTO ALCAN PLANT_60	I	1		P	BRITISH COLUMBIA	#1 Smeltersite Road	Kitimat	CANADA			-8	54.0194	-128.7042	17	X													X												
104001	RCMP BUILDING	R	0		N	BRITISH COLUMBIA	3402 30th STREET	VERNON	CANADA	V1T	V1T 5E5	-8	50.26714	-119.27067	394																										
104002	COLDSTREAM RANCH	R	0		N	BRITISH COLUMBIA	COLDSTREAM RANCH	VERNON	CANADA	V0E		-8	50.2234	-119.1938	487																										
104003	VERNON SCIENCE CENTRE	R	1		P	BRITISH COLUMBIA	2704 HIGHWAY 6	VERNON	CANADA	V1T	V1T 5G5	-8	50.2333	-119.283	476	X		X	X		X		X																		
104101	CITY HALL	R	1		Y	BRITISH COLUMBIA	CITY HALL	GRAND FORKS	CANADA	V0H		-8	49.0311	-118.439	517								X																		
104201	MERRIT SCHOOL	R	0		N	BRITISH COLUMBIA	MERRIT SCHOOL	MERRIT	CANADA	V0K		-8	50.1125	-120.79167	597																										
104301	TAYLOR TOWNSITE	R	1		P	BRITISH COLUMBIA	MCMAHON COMPLEX	TAYLOR	CANADA	V0C		-7	56.15083	-120.68611	474	X																									
104302	TAYLOR SOUTH HILL	R	1		P	BRITISH COLUMBIA	Pingle Creek Road	TAYLOR	CANADA			-7	56.10583	-120.66333	689	X																									
104401	PORT EDWARD PACIFIC	R	0		N	BRITISH COLUMBIA	770 PACIFIC STREET	PORT EDWARD	CANADA	V0V		-8	54.22083	-130.28972	39																										
104501	QUADRA ISLAND LIGHthOUSE	R	0		N	BRITISH COLUMBIA	LIGHthOUSE ROAD	QUADRA ISLAND	CANADA	V0P		-8	49.99972	-125.19444	17							X																			
104601	TELKWA	R	1		P	BRITISH COLUMBIA	1304 BIRCH STREET	TELKWA	CANADA	V0J		-8	54.69111	-127.05472	515								X																		
104701	GALLOWAY RAPIDS	R	0		Y	BRITISH COLUMBIA	HIGHWAY 16	PRINCE RUPERT	CANADA	V8J		-8	54.25972	-130.26806	0																										
104801	DUNCAN DEYKIN AVENUE	R	1		P	BRITISH COLUMBIA	6364 DEYKIN AVENUE	DUNCAN	CANADA	V9L	V9L 5R2	-8	48.80278	-123.645	62							X	X																		
104802	DUNCAN CRAN SCHOOL	R	0		N	BRITISH COLUMBIA	DUNCAN CRAN SCHOOL	DUNCAN	CANADA	V9L		-8	56.2358	-120.815	688																										
104803	DUNCAN CAIRNSMORE	R	1		Y	BRITISH COLUMBIA	490 Cairnsmore Street	DUNCAN	CANADA	V9L		-8	48.785	-123.71583	62			X	X		X												X								
104901	GENELLE	R	0		N	BRITISH COLUMBIA	GENELLE	GENELLE	CANADA	V1N		-8	49.2075	-117.697	432																										
105001	MEADOW PARK	R	1	X	Y	BRITISH COLUMBIA	MEADOW PARK	WHISTLER	CANADA	V0N		-8	50.1439	-122.9611	638			X	X		X		X										X								
105101	FIREHALL	R	1		P	BRITISH COLUMBIA	FIREHALL	HOUSTON	CANADA	V0J		-8	54.3972	-126.645	602								X																		
105201	FIRE CENTRE	R	1		P	BRITISH COLUMBIA	FIRE CENTRE	BURNS LAKE	CANADA	V0J		-8	54.2308	-125.764	710								X																		
105301	LANGDALE ELEMENTARY	R	1		P	BRITISH COLUMBIA	FORRES ROAD	LANGDALE	CANADA	V0N		-8	49.44167	-123.49167	90	X		X	X																						
105401	BOSTON BAR RCMP STATION	R	0		N	BRITISH COLUMBIA	47864 OLD BOSTON BAR ROAD	BOSTON BAR	CANADA	V0K	V0K 1C0	-8	49.86583	-121.4425	162																										
105501	NP CULTURAL CENTRE	C	1		Y	BRITISH COLUMBIA	10015 100th AVENUE	FORT ST. JOHN	CANADA	V1J	V1J 1Y7	-7	56.24583	-120.84889	692							X																			
105502	FT ST JOHN-FEHR RESIDENCE	R	0		N	BRITISH COLUMBIA	FT ST JOHN-FEHR RESIDENCE	FORT ST. JOHN	CANADA	V1J		-7	56.2433	-120.7644	677																										
105601	OSOYOOS SHAW GARDENS	R	0		N	BRITISH COLUMBIA	6601 89th STREET	OSOYOOS	CANADA	V0H	V0H 1V0	-8	49.0375	-119.43833	291																										
105602	OSOYOOS EC WEATHER STN	R	0		N	BRITISH COLUMBIA	OSOYOOS EC WEAthER STN	OSOYOOS	CANADA	V0H		-8																													
105603	OLIVER STP AIR	R	0		N	BRITISH COLUMBIA	OLIVER STP AIR	OSOYOOS	CANADA	V0H		-8																													
105604	OSOYOOS CANADA CUSTOMS	R	1		Y	BRITISH COLUMBIA	202 Hwy 97 South	OSOYOOS	CANADA			-8	49	-119.4625	302	X	X	X	X		X														X						
105701	"W.E. GRAHAM SCHOOL ROOF, SLOCAN"	R	0		N	BRITISH COLUMBIA	"W.E. GRAHAM SCHOOL ROOF, SLOCAN"	SLOCAN	CANADA	V0G	V0G 2C0	-8	49.7633	-117.4703	553																										
105801	STEWART	R	0		N	BRITISH COLUMBIA	STEWART	STEWART	CANADA	V0T	V0T 1W0	-8	55.9419	-129.9889	16																										
105901	CASTLEGAR FIRE HALL	R	0		N	BRITISH COLUMBIA	CASTLEGAR FIRE HALL	CASTLEGAR	CANADA	V1N		-8	50	-115	1661																										
105902	KOKANEE PARK	R	0		N	BRITISH COLUMBIA	KOKANEE PARK	CASTLEGAR	CANADA	V1N		-8	49.296	-117.655	474																										
106001	HEIMBECKER'S PROPERTY	F	0		N	BRITISH COLUMBIA	HEIMBECKER'S PROPERTY	MCBRIDE	CANADA	V0J		-8	53.3087	-120.1794	728																										
106101	VALEMOUNT	R	0		N	BRITISH COLUMBIA	VALEMOUNT	VALEMOUNT	CANADA	V0E		-8	52.83	-119.25	800																										
106201	COMINCO STATION	R	0		N	BRITISH COLUMBIA	COMINCO STATION	NORthPORT	CANADA			-8	48.9256	-117.7797	441																										
106301	NEW AIYANSH	F	0		N	BRITISH COLUMBIA	NEW AIYANSH	NEW AIYANSH	CANADA			-8	55.2197	-129.0906	90																										
106401	ROBSON	R	1		P	BRITISH COLUMBIA	3113 Charleston Road	Robson	CANADA			-8	49.33639	-117.69778	441	X																									
106501	Fort Nelson Brucker Ranch	R	0		N	BRITISH COLUMBIA	Block A of District Lot 1676	Fort Nelson	CANADA			-8	58.57778	-122.58944	483	X																									
106502	Fort Nelson Chalo School	R	0		N	BRITISH COLUMBIA	Chalo Road (First Nations Reserve)	Fort Nelson	CANADA			-8	58.74806	-122.66222	384								X																		
106503	Fort Nelson Townsite	R	0		N	BRITISH COLUMBIA	Village Site	Fort Nelson	CANADA			-8	58.81028	-122.70417	456	X																									
106600	PEMBERTON SIGNAL HILL	R	0		N	BRITISH COLUMBIA	PORTAGE ROAD	PEMBERTON	CANADA			-8	50.31355	-122.78987	211																							X			
106700	CROFTON ESCARMENT WAY	I	1		P	BRITISH COLUMBIA	1821 Escarpment Way	CROFTON	CANADA			-8	48.838	-123.6552	128	X		X	X				X																		
106701	CROFTON SUBSTATION	I	1		P	BRITISH COLUMBIA	8541 Hay Street	CROFTON	CANADA			-8	48.875	-123.65	22	X		X	X			X	X																		
106800	UCLUELET AMPHITRITE POINT	R	1		Y	BRITISH COLUMBIA	COAST GUARD DRIVE	UCLUELET	CANADA			-8	48.9217	-125.5411	14	X	X	X	X		X									X		X	X		X						
106900	VANDERHOOF BAM	R	1		Y	BRITISH COLUMBIA	2441 BUTE ROAD	VANDERHOOF	CANADA			-8	54.0163	-124.0061	637																		X								
107000	RUMBLE BEACH HOSPITAL	C	1		P	BRITISH COLUMBIA	1090 MARINE ROAD	PORT ALICE	CANADA			-8	50.4264	-127.4881	3	X																	X								
107001	PORT ALICE LAKE ROAD	I	1		P	BRITISH COLUMBIA	Lake Road	Port Alice	CANADA			-8	50.3668	-127.4333	152	X																	X								
107100	COURTENAY ELEMENTARY SCHOOL	R	1		P	BRITISH COLUMBIA	1540 McPhee Avenue	Courtenay	CANADA		V9N 3A5	-8	49.6825	-124.9961	27			X	X	X	X												X								
107200	STRATHNAVER MEADOWBANK_60	I	1		P	BRITISH COLUMBIA	Pinnacle Pellet Plant 41880  Hwy 97N	Strathnaver	CANADA			-8	53.3002	-122.5214	655																X	X									
119001	FEDERAL BUILDING	C	0		N	YUKON	300 MAIN STREET	WHITEHORSE	CANADA	Y1A	Y1A 2B5	-8	60.72028	-135.05472	639																										
119002	ANDREW PHILIPSEN LAW CENTRE	C	0		N	YUKON	2130 - 2ND AVENUE	WHITEHORSE	CANADA	Y1A	Y1A 5C3	-8	60.72028	-135.05472	639																										
119003	NAPS HOUSE	C	0		Y	YUKON	1091 - 1ST AVENUE	WHITEHORSE	CANADA	Y1A	Y1A 1A1	-8	60.718609	-135.049193	643		X	X			X		X																		
119004	STEELE STREET	R	1		Y	YUKON	410 STEELE STREET	WHITEHORSE	CANADA			-8	60.71972	-135.05875	640		X	X	X	X	X														X						
129001	POST OFFICE SITE	C	0		N	NORTHWEST TERRITORIES	50th AVE. & 49th STREET	YELLOWKNIFE	CANADA	X1A	X1A 1C0	-7	62.455	-114.37167	188																										
129002	CITY HALL	C	0		N	NORTHWEST TERRITORIES	4807 52ND STREET	YELLOWKNIFE	CANADA	X1A	X1A 2S2	-7	62.45444	-114.37639	187	X					X																				
129003	SIR JOHN FRANKLIN HS	C	1	X	Y	NORTHWEST TERRITORIES	52ND AVE & 49T STREET	YELLOWKNIFE	CANADA	X1A	X1A 2N8	-7	62.45207	-114.364	193	X	X	X	X	X	X	X											X					X			
129101	AIRPORT BLDG.	C	0		N	NORTHWEST TERRITORIES	"#7 Forestry Road, AIRPORT BLDG."	NORMAN WELLS	CANADA	X0E		-7	65.29174	-126.85873	64																										
129102	NORMAN WELLS NW_REGIONAL_OFFICE	R	1		P	NORTHWEST TERRITORIES	#7 FORESTRY ROAD N. WELLS	Norman Wells	CANADA	X0E	X0E 0V0	-7	65.279139	-126.812093	60	X		X	X	X	X				X																
129103	FORT LIARD	R	1		P	NORTHWEST TERRITORIES	Airport	Fort Liard	CANADA			-7	60.23583	-123.46667	234	X		X	X	X	X	X			X																
129201	D.I.A.N.D. RESEARCH LAB	C	0		N	NORTHWEST TERRITORIES	D.I.A.N.D. RESEARCH LAB	INUVIK	CANADA	X0E		-7	68.35	-133.71667	3																										
129202	SAMUEL HEARNE SCHOOL	R	0		N	NORTHWEST TERRITORIES	Kingmingya Rd / Block 17	INUVIK	CANADA	X0E	X0E 0T0	-7	68.360052	-133.727206	17	X		X	X	X	X	X			X																
129203	INUVIK	R	1		Y	NORTHWEST TERRITORIES	"BOMPAS ROAD (BLOCK21, LOT 4084)"	INUVIK	CANADA	X0E	X0E 0T0	-7	68.35702037	-133.7140565	30	X		X	X		X	X											X								
129301	BAY BLDG.	R	0		N	NUNAVUT	BAY BLDG.	IQALUIT	CANADA	X0A		-5	63.75	-68.51667	34																										
129302	WILDLIFE SERVICES GARAGE	U	1	X	Y	NUNAVUT	RENEWABLE RESOURCES OFFICE	IQALUIT	CANADA	X0A	X0A 0H0	-5	63.75	-68.517	33																										
129303	WATERLAB	C	1		Y	NUNAVUT		IQALUIT	CANADA	X0A	X0A 0H0	-5	63.751619	-68.522433	35			X	X	X	X												X								
129401	ALERT	U	1	X	C	NUNAVUT	ALERT	ALERT	CANADA	X0A		-5	82.45083	-62.34167	187						X															X					
129501	SNARE RAPIDS	U	1		C	NORTHWEST TERRITORIES	SNARE RAPIDS	SNARE RAPIDS	CANADA			-7	63.50833	-116.00861	240						X																				
50135	CASERNE 17	R	4		Y	QUEBEC	4240 RUE CHARLEROI	MONTREAL	CANADA			-5	45.5934	-73.63726	41		X	X	X		X								X	X	X	X			X						
90133	Edmonton - Woodcroft		4		N	ALBERTA						-7	53.564411	-113.562583	670	X		X	X	X	X		X						X												
11001	LABRADOR CITY - SMOKEY MOUNTAIN	C	4		P	NEWFOUNDLAND-LABRADOR		LABRADOR CITY	CANADA	A2V		-4	52.9518	-66.9156	540			X	X	X	X												X								
